contact since,first,middle,last,address,address2,city,state,zip
"January 09, 2006",Saado,,Abbouel,3316 Ensign Avenue N.,,Minneapolis,MN,55427
"March 23, 2005",Maureen,,Acosta,14265 South 50th Street,,Afton,MN,55001
"January 09, 2006",Enca,,Adams,310 8th Avenue S.  #106,,St. Cloud,MN,56301
"August 17, 2003",Steven,,Aggergaard,1064 Dayton Avenue,,St. Paul,MN,55104
"January 28, 2002",Jon,,Ahlberg,13000 Harriet Ave. S.,,Burnsville,MN,55337
"November 02, 2003",Pam,,Ahlvers,9815 Upper 205 St.,,Lakeville,MN,55044
"August 31, 2001",Ta-coumba,,Aiken,"225 East Kellogg, #301",,St. Paul,MN,55101
,Jan,,Albertson,746 Benton Street,,Anoka,MN,55303
,Rosemary,,Albrecht,"7412 W. 22nd Street, #301",,Minneapolis,MN,55426-2649
"April 03, 2001",Raymond,,Alexander,Saks Fifth Avenue,655 Nicollet Mall,Minneapolis,MN,55402
"October 24, 2001",Charlie,,Allen,115 Vicksburg Lane N,Suite 14,Plymouth,MN,55447
"January 17, 2005",Ethan,,Allen,1810 Clear Avenue,,St. Paul,MN,55119
"March 07, 2009",Ruth,,Alliband,410 W Olive,,Stillwater,MN,55082
"August 03, 2004",Allan,,Alnes,5821 Ewing Avenue South,,Edina,MN,55410
"August 30, 2002",Karen,,Anderle,1310 W. County Rd B2,,Roseville,MN,55113
,Barbara,,Anderson,194 Dennison Avenue,,Shoreview,MN,55126
"September 20, 2001",Bob,,Anderson,2822 Greenwood Island NW,,Cedar,MN,55011
"October 24, 2001",Brian,,Anderson,220 South Sixth Street,Suite 500,Minneapolis,MN,55402
,Bruce,,Anderson,501 St. Olaf Avenue,,Northfield,MN,55057
,Dawn,,Anderson,7440 - 152nd Lane N.W.,,Ramsey,MN,55303
"June 14, 2005",Dianne,,Anderson,211 West Kenwood Drive,,Maplewood,Mn,55117
,Don,,Anderson,3240 Rain Avenue,,Watertown,MN,55388
,E.,,Anderson,5138 40th Avenue South,,Minneapolis,MN,55417
"March 14, 2003",Elly,,Anderson,14271 92nd Avenue N.,,Maple Grove,MN,55369
"January 11, 2004",Harriet,,Anderson,10383 Thrush St.,,Coon Rapids,MN,55433
"August 17, 2003",Irik,,Anderson,1557 Western Avenue N,,St. Paul,MN,55117
"August 30, 2002",Jim,,Anderson,8201 Norman Creek Trail,,Bloomington,MN,55437
"September 17, 2004",Judy,,Anderson,1462 Featherstone Court,,Hastings,MN,55033
"February 08, 2007",Karen,,Anderson,2505 Perry Avenue N.,,Golden Valley,MN,55422
"August 17, 2003",Kim,,Anderson,3093 Maple Leaf Ct.,,Little Canada,MN,55109
"August 02, 2004",Lea,,Anderson,5401 Morgan Avenue North,,Brooklyn Center,MN,55430
"August 17, 2003",Lee,,Anderson,POB 1148,,Fraser,CO,80442
"January 11, 2004",Lisa,J.,Anderson,1308 Liberty Ct.,,Northfield,MN,55057
,Marilee,,Anderson,400 W. 9th St.,,Hastings,MN,55033
"September 17, 2004",Martha,,Anderson,1929 Oakland Road,,Minnetonka,MN,55305
"November 05, 2001",Patricia,,Anderson,2060 Shenandoah Ct. N. #A,,Plymouth,MN,55391
"September 09, 2008",Paulette,,Anderson,2848 14th Ave SE,,St. Cloud,MN,56304
"January 17, 2005",Richard,,Anderson,1495 373rd Avenue NE,,Stanchfield,MN,55080
"January 17, 2005",Robert,,Anderson,2024 Kenwood Parkway,,Minneapolis,MN,55405
,Scott,R.,Anderson,3300 Oakdale Avenue North,,Robbinsdale,MN,55422
,Sheilah,,Anderson,2635 5th Avenue S,,Minneapolis,MN,55408-1749
"November 02, 2003",Susan,,Anderson,PO Box  5062,,Lake Crystal,MN,56055
,Marilyn,,Anderson Spensley,5117 Chicago Ave. So.,,Minneapolis,MN,55417
,Ed,,Anthony,7548 Edgewood Ave,7 N,Brooklyn Park,MN,55428
,Norma Jo,,Antolak,2409 78th Ave N,,Brooklyn Park,MN,55444
"June 14, 2005",Lawrence,,Archbold,Carleton College Music Department,300 North College Street,Northfield,MN,55057
"January 09, 2006",Rafael Alejos,,Arellano,1654 N. Washburn Avenue,,Minneapolis,MN,55411
,H.,,Arneson,15555 Garnet Way,,Apple Valley,MN,55124
"March 30, 2001",Diane,,Arney,1072 Seminary Avenue,,St. Paul,MN,55104
,Donald,,Arnleend,22845 - 745th Avenue,,Dassel,MN,55325
"September 09, 2008",Patti,,Arntz,4570 Norwood Lane,,Plymouth,MN,55442
,Wayne,,Arrowood,1763 Chatham Avenue,,Arden Hills,MN,55112
"July 27, 2004",Anne,,Arthur,1426 Monroe NE,,Minneapolis,MN,55413
"August 17, 2003",John,,Artisensi,3152 Lido Way,,Denton ,TX,76207
"September 15, 2004",Deanna,,Asbell,Rt. 1 Box 12-C,,Bayfield,WI,54814
"September 15, 2004",Sharon,,Asbell,2717 13th Avenue S.  Apt 1+D124,,Minneapolis,MN,55407
"January 17, 2003",Mary Kaye,,Ashley,11500 22nd Avenue S.,,Burnsville,MN,55339-1201
,Sandra,J.,Aslaksen,3508 Tyler Street NE.,,Minneapolis,MN,55418
"January 17, 2005",Archie,,Atkinson,5645 Nicollet Avenue South,,Minneapolis,MN,55419
,Joan,,Autrey,17205 23rd Ave,,Plymouth,MN,55447
"October 24, 2001",William,A.,Autrey,3006 S. 20th Street,,St. Cloud,MN,56301
"May 01, 2007",Bridget,,Babcock,320 Deerfoot Trail,,Chanhassen,MN,55317
,Larry,,Bach,12174 Gantry Lane,,Apple Valley,MN,55124-6298
"January 17, 2005",Elsie,,Bachman,8549 Irwin Road So. #334,,Bloomington,MN,55437
"August 17, 2003",Gretchen,,Bachman,Rte. 1 Box 258,,Spring Valley,MN,55975
,Beth,,Baggott,6211 Upland Lane N,,Maple Grove,MN,55311
"February 19, 2004",Patty,,Bahl,10968 98th Avenue N.,,Maple Grove,MN,55369
,Donna,,Bailey,19660 Waterford Court,,Shorewood,MN,55331
"June 14, 2005",Marcia,,Bailey,648 17th Avenue North,,South St. Paul,MN,55075
"September 17, 2004",Margery,,Bailey,4715 Nokomis Ave. So.,,Minneapolis,MN,55417
"October 24, 2001",Lornell,,Baker,655 Nicollet Mall,,Minneapolis,MN,55402
"August 31, 2007",Rebecca,,Ballas,99 North Victoria,,St. Paul,MN,55104
"January 09, 2006",Mike,,Bamonti,11385 B Chsholm,,Blaine,MN,55449
"September 29, 2006",Val,,Bang,9350 Collegview Rd #305,,Bloomington,MN,55410
"August 17, 2003",Gregory,,Baranow,19313 1st Street,,Eagle River,AK,99577
,Tami,,Baribeau,1763 Rome Avenue,,St. Paul,MN,55116
"August 31, 2001",Allen,,Barnard,4000 US Bank Place,601 Second Avenue South,Minneapolis,MN,55402
"March 11, 2004",Kristine,,Barnes,6500 5th Avenue,,Richfield,MN,55423
"March 30, 2001",Robert McClellan,,Barnett,8718 Walton Pond Circle,,Bloomington,MN,55438
,Karin,,Barrett,Minneapolis Vocal Consort,1400 Searle Street,St. Paul,MN,55101
"August 17, 2003",Mark,,Barrett,1185 Roy Road,,Bellingham,WA,98226
"February 20, 2004",Alice,,Barry,4552 Xerxes Avenue S.,,Minneapolis,MN,55410
"November 02, 2003",Mindy,,Bartell,508 Tyler Avenue,,North Mankato,MN,56003
"March 30, 2001",Leanne,,Barthel,11037 Oregon Circle,,Bloomington,MN,55438
,Michelle,D.,Barton,1010 Lake Street NE   # 111,,Hopkins,MN,55343-8169
,Jim,,Bartsch,18 Fareway Drive,,Northfield,MN,55057
,Karen,,Bartz,6650 Vernon Ave.,,Edina,MN,55436
,Lori LaBelle,,Bartz,5605 Countryside Road,,Edina,MN,55436-2505
"September 16, 2004",Carol,,Bauer,1299 Hague Avenue,,St. Paul,MN,55104
"January 17, 2005",Deborah,,Bauknight,1011 Sheridan Avenue North,,Minneapolis,MN,55411
"January 07, 2005",Catherine,,Baumgartner,2223 Pleasant Avenue  #2,,Minneapolis,MN,55404
"September 03, 2002",Debbie,,Baumgartner,32202 County Rd 1,,St. Cloud,MN,56303
,Ralph,,Baumgartner,1377 Nebraska Avenue W,,St. Paul,MN,55108-2321
,Tom,,Beach,1222 E. Como Blvd.,,St. Paul,MN,55117
"August 31, 2001",Wendy,,Beard,2921 Virginia Avenue,,St. Louis Park,MN,55426
"February 08, 2007",Becky,,Becker,12735 Highway 95,,Princeton,MN,55371
"August 17, 2003",Laurie,,Beckman Yetzer,1011 W. 90th Street,,Bloomington,MN,55420
"February 10, 2007",Dan,,Been,916 Columbus,,Minneapolis,MN,55404
"August 30, 2002",Anne,,Beiter,3824 Hidden Way NE,,Rochester,MN,55906
"July 27, 2004",Norman,,Belland,141 Linden Road,,Prescott,WI,54021
"January 28, 2002",Susan,,Benfield,1385 Lincoln Ave.,,St. Paul,MN,55105
,A. Jeanne,,Bengston,1760 Hennepin Ave,#43,Minneapolis,MN,55403-2124
"January 17, 2003",Vickie,,Bensen,"Jerome Foundation, 125 Park Square Court",400 Sibley St. ,St. Paul,MN,55101-1928
,Jesse,,Benson,152 Seymour Avenue SE,,Minneapolis,MN,55414
"January 28, 2002",Paul,,Benson,2080 N. Victoria St.,,Roseville,MN,55113
,Phyllis,,Bentley,1003 Greenhaven Drive,,Vadnais Heights,MN,55127-7820
"March 14, 2007",Alton,E.,Berg,187 16th Avenue NW,,New Brighton,MN,55112
"September 20, 2004",Bradley,,Berg,6420 25th Avenue NW,,Rochester,MN,55901
"January 17, 2005",Doris,,Berg,3210 Girard Avenue S. #301,,Minneapolis,MN,55408
"November 13, 2006",Joey,,Berg,10423 10th Street SW,,Howard Lake,MN,55349
"January 11, 2004",Morris,,Berg,"707 4th St. S, Box 173",,Princeton,MN,55371
,Deanna,,Berge,5112 Minnetonka Blvd,,St. Louis Park,MN,55416
"January 17, 2005",Gail,,Bergeron,7024 James Avenue North,,Brooklyn Center,Mn,55430
"August 17, 2003",Kim,,Berggren,2634 138th Avenue NW,,Andover,MN,55304
"August 17, 2003",Philip,,Berglin,16032 Pierce Street NE,,Ham Lake,MN,55304
"August 17, 2003",Alicia,,Bergman,6235 Hwy 21,,Embarrass,MN,55732
,Ann,,Berne-Rannow,17150 Cedarcrest Drive,,Eden Prairie,MN,55347
,Sandra,,Berthene,2607 Inglewood Ave. So.,,St. Louis Park,MN,55416
"January 17, 2005",Patti,,Bestrup,8103 Foxberry Bay,,Savage ,MN,55378
"October 24, 2001",Becky,,Bickett,1500 Norwest Financial Center,7900 Xerxes Avenue,Minneapolis,MN,55431
"June 05, 2008",Joel,,Bierbach,640-19th Avenue NW,,New Brighton,MN,55112
"January 17, 2005",Evelyn,,Bill,6711 Lake Shore Dr. #402,,Richfield,MN,55423
,Alvin,,Bipes,P.O. Box 44333,,Eden Prairie,MN,55344
,Carole,,Birch,133 Peavey Lane,,Wayzata,MN,55391
,Dorothy,,Birkeland,"10113 W 34th St, #213",,Minnetonka,MN,55343
"August 17, 2003",Michael,,Birkeland,2703 S. Riviera Dr.,,White Bear Lake,MN,55110
"March 14, 2003",Angie,,Bjorgan,1304 W. Medicine Lake Dr.,#123,Plymouth,MN,55441
,Suzanne,J.,Bjork,342 West Floral Dr.,,Shoreview,MN,55126-2307
"March 20, 2007",Charles M.& Patricia,A.,Blake,1323 Poppyseed Court,,New Brighton,MN,55112
"September 09, 2008",Camille,,Blanchette,4736 Garfield,,Minneapolis,MN,55419
"January 17, 2005",Vivian,,Blank,1128 Landmark Trail South,,Hopkins,MN,55343
,Carol,,Blas√©,12061 Oak Park Blvd. NE,,Blaine,MN,55434
,R. Nathan,,Bliss,160 South 4th Street,,Bayport,MN,55003
"February 19, 2004",Connie,,Blom,3876 Lawndale Lane N,,Plymouth,MN,55446
,Judy,,Blomgren,8008 College Park Drive,,Brooklyn Park,MN,55445
"September 17, 2004",Marie,,Blomgren,"3150 No. Lexington, #111",,Shoreview,MN,55126
,Laureen,,Bluhm,1651 Hartford,,St. Paul,MN,55116
,Lindsey,,Bock,3501 - 33rd Avenue South,,Minneapolis,MN,55406
,Laurel,T.,Boerger,2563 Heritage Drive,,Mendota Heights,MN,55120
"May 01, 2007",Kelsey,,Bohleen,766 Woodland Hills Blvd.,,Victoria,MN,55386
"January 17, 2005",Robert,,Boldt,17 S. 1st St. #A1101,,Minneapolis,MN,55401
"June 14, 2005","Fran, Rob, Nina",,Boler,1415 Blue Sage Court,,Boulder,CO,80305
"June 14, 2005",Jim,,Boler,18420 33rd Avenue,,Plymouth,MN,55447
"June 14, 2005",Joe,,Boler,1635 White Bear Avenue,,St. Paul,MN,55106
"June 14, 2005",Marie,,Boler,128 Monrose Place,,St. Paul,MN,55104
"June 14, 2005",Patty,,Boler,2510 University Avenue NE,,Minneapolis,MN,55418
"November 05, 2001",Russell,,Bollesen,5781 191st St. West,,Farmington,MN,55024
"February 19, 2004",Karen,,Bolstad,5801 Halifax Ave. W.,,Brooklyn Center,MN,55429
,Peder,,Bolstad,1114 Lia Court,,Northfield,MN,55057
,David,,Bonitz,1977 East 4th Street,,St. Paul,MN,55119
"November 05, 2001",Michele,,Bonnes,1485 Osceola Avenue,,St. Paul,MN,55105
"August 17, 2003",Leslie,,Bonshire,4538 Oak Chase Way,,Eagan,MN,55123
,Charles,,Boody,6385 Acorn Road,,Mound,MN,55364
"January 17, 2005",Bradley,,Boogren,18 Como Avenue,,St. Paul,MN,55103
"August 17, 2003",Conie,,Borchardt,1783 Field Avenue,,St. Paul,MN,55116
,Ann,,Bordonaro,3435 Glen Oaks Avenue,,White Bear Lake,MN,55110-5609
"January 28, 2002",Robert,,Borman,2305 Cavell Ave. N.,,Golden Valley,MN,55427
"March 14, 2003",Catherine,,Born,Minnesota International Center,711 East River Road,Minneapolis,MN,55455
"August 01, 2006",Margaret,,Born,10248 Portland Avenue South,,Bloomington,MN,55420-5432
"September 20, 2004",Jodie,,Boseck,13516 Heather Hills,,Burnsville,MN,55337
"March 30, 2001",Sandra,,Bostrom,20 Mission Lane,,Bloomington,MN,55420
"August 31, 2001",Carlotta,,Bower,4100 12th Ave S,,Minneapolis,MN,55407
"March 14, 2003",Mary,,Brady,St. Olaf Church,215 S. 8th St.,Minneapolis,MN,55402
,Sheryl,,Brame,6815Narcissus Lane N,,Maple Grove,MN,55311
,Brad,,Brandt,13129 Thomas Avenue,,Burnsville,MN,55337
"February 28, 2006",Myrtle,,Brandvold,9607 Palmer Road,,Bloomington,MN,55437
,Steven,F.,Branstad,140 W. Elmwood Place,,Minneapolis,MN,55419
,Dr. Erik,C.,Brendtro,1523 Hoyt Avenue West,,Falcon Heights,MN,55108
,Letha,,Brenner,P.O. Box 97,411 South 8th Street,Bird Island,MN,55310
,E.M.,,Brenny,3108 Mhaha Parkway East,,Minneapolis,MN,55406
,Jeanie,,Brindley-Barnet,4209 Standish Avenue South,,Minneapolis,MN,55407-5037
"February 08, 2007",Andrea,,Brink,6324 Tingdale Avenue So.,,Edina,MN,55439
"September 15, 2004",Jan,,Bromenschenkel,961 Kay Avenue,,Mendota Heights,MN,55118
,Joel,,Brown,110 East County Road B2,,St. Paul,MN,55117
"January 17, 2005",Michael,,Brown,66 East 9th Street #2113,,St. Paul,MN,55101
"August 17, 2003",Natalie,,Brown,1755 Meadow Lane,,Centerville,MN,55038
"August 31, 2001",Sharon,,Brown,2420 Bloomington Avenue,,Minneapolis,MN,55404
"January 28, 2002",Mary Ann,,Browning,2908 40th Ave. S.,,Minneapolis,MN,55406
"November 13, 2007",Sandra,,Browning,2707 Woods Trail North,,Burnsville,MN,55306
,Donalda,M.,Brownson,26 Nathan Lane  # 315,,Plymouth,MN,55441
"August 31, 2001",Steve,,Bruchman,Family & Community Services Center,1234 Columbus Avenue N.,New Prague,MN,56071
"February 05, 2002",Paul,,Bruer,275 Hollander Rd.,,Wayzata,MN,55391
"March 30, 2001",Sharon,,Bruestle,PO Box 696,,Mendota,MN,55150
"February 19, 2004",Kathleen,,Bruha,9479 Ranchview Lane N,,Maple Grove,MN,55369
"October 24, 2001",Hannah,L.,Brummer,CLA Arts Student Community,"560 Heller Hall, 271 19th Ave. S.",Minneapolis,MN,55455
"October 24, 2001",George,,Brust,4200 IDS Center,80 South 8th St.,Minneapolis,MN,55402
,Sharon,,Brvestle,PO Box 646,,Mendota,MN,55150
"June 14, 2005",Jackson,,Bryce,Carleton College Music Department,300 North College Street,Northfield,MN,55057
"February 19, 2004",Twyla,,Bublitz,1822 220th Street,,Centuria,WI,54824
"August 17, 2003",Robyn,,Buchtel,13560 Skyline Drive,,Spicer,MN,56288
"October 24, 2001",Betsy,,Buckley,"284 Pelham Blvd, Suite 200",,St. Paul,MN,55104
"August 17, 2003",Michelle,,Budig,4816 Larchwood Avenue,,Philadelphia,PA,19143
,Susan,,Buesgens,8477 - 133rd Street Court,,Apple Valley,MN,55124-9503
,Jill,,Buhse,6540 Kilmer Way,,Maple Grove,MN,55369
"August 30, 2002",Dr. Bruce,,Buller,1420 City View Court NE,,Rochester,MN,55906
"January 09, 2006",Erika,,Bunnell,11617 9th Avenue NW,,Coon Rapids,MN,55433
"January 09, 2006",Gregory,,Burke,7821 Zane Avenue N.,,Brooklyn Park,MN,55445
"August 17, 2003",Paul,,Burow,8201 Hampshire Avenue N,,Plymouth,MN,55446
,Donna,,Burr,6106 Colfax Ln S.,,Minneapolis,MN,55419
,Russell,,Bursch,3243 E. Calhoun Pkwy.,,Minneapolis,MN,55408
"October 24, 2001",Bill,,Busch,2200 Wells Fargo Center,90 South 7th St.,Minneapolis,MN,55402
"November 02, 2003",Carol Engebretson,,Byrne,"Executive Director, MIC",711 East River Road,Minneapolis,MN,55455
,Richard,,Byrne,5333 Nicollet Avenue,,Minneapolis,MN,55419-2621
"August 30, 2002",Charles,,Bysheim,207 5th Avenue SW,#506,Rochester,MN,55902-3117
"January 09, 2006",Mary,,Caesar,P.O. Box 11264,,Minneapolis,MN,55411
"October 24, 2001",John,,Cairns,1766 James Avenue South,,Minneapolis,MN,55403
"January 17, 2005",Evangeline,,Callerstrom,"420 Ford Roda, #120",,St. Louis Park,MN,55426
,Irma,,Cameron,4085 Everest Lane No.,,Plymouth,MN,55446
"August 08, 2006",Phyllis,,Campbell,1235 Yale Place #705,,Minneapolis,MN,55403
"August 30, 2002",Gwen,,Cannon,MRAC,"2324 University Ave W, #114",St. Paul,MN,55114
"June 05, 2008",David,,Carey,5433 24th Avenue South,,Minneapolis,MN,55417
"November 03, 2003",Craig,,Carlson,5501 Pillsbury Ave S,,Minneapolis,MN,55419
,Dorothy,,Carlson,1425 10th Ave. S.,,Minneapolis,MN,55404
"August 17, 2003",Jeffrey,,Carlson,8140 - 242nd Lane NE,,Linwood,MN,55079
"February 10, 2007",Kathy,,Carlson,2728 Sheldon Street,,Roseville,MN,55113
"June 14, 2005",Marny,L.,Carlson,40 Elton Ridge Court NW,,Rochester,Mn,55901
,Michelle,,Carlson,205 Orchid Lane,,Plymouth,MN,55447
"February 20, 2004",Nan,,Carlson,2700 W. 59th Street,,Minneapolis,MN,55410
"August 08, 2006",Noreen,,Carlson,12615 50th Avenue North,,Plymouth,MN,55442
,Pamela,,Carlson,4483 Upper 135th St. W.,,Rosemount,MN,55068
,Sharon,B.,Carlson,9030 Duluth Street,,Golden Valley,MN,55427
"March 30, 2001",Joan,,Carrier,1040 W. County Road C2,,Roseville,MN,55113
"January 17, 2005",Earl,,Carson,7200 York Avenue South #105,,Edina,MN,55435
,Nicolas,,Carter,3717 Zane Avenue North,,Crystal,MN,55422
,Gerhard,,Cartford,2279 Commonwealth Ave.,,St. Paul,MN,55108
,Carol,,Carver,424 North Third,,Stillwater,MN,55082
,Norma,,Cashill,1760 Trail Road,,Mendota Heights,MN,55118
"February 19, 2004",Mary,,Catino,6646 Cardinal Circle,,Maple Grove,MN,55369
,Lauri,,Cervin,719 North 1st Street,,Darwin,MN,55324
"June 14, 2005",Carole,,Chalman,3920 12th Avenue South,,Minneapolis,MN,55407
,Sonja,,Chamberlain,1707 Levee Ave,,Anoka,MN,55303
"September 18, 2002",Donna,,Christensen,10855 6th St. NE,,Blaine,MN,55434
,Erik,,Christensen,3235 - 35th Ave. S.,,Minneapolis,MN,55406
"March 30, 2001",Jacqueline,,Christensen,8519 W 97th St. Circle,,Bloomington,MN,55438
"July 28, 2004",Judy,,Christensen,10024 Chowen Avenue S.,,Bloomington,MN,55431
"August 08, 2006",Rachel,,Christensen,1953 Sargent Avenue,,St.Paul,MN,55105
"March 14, 2003",Marilyn,,Christenson,501  Theodore Wirth Pkwy  Apt 103,#335,Golden Valley,MN,55422
,Erik,,Christiansen,2075 Quebec Ave. So.,,Lakeland,MN,55043-9512
,Marian,,Christopherson,3533 Yates Avenue North,,Crystal,MN,55422
"August 30, 2002",Betty,,Clapp,2847 Griggs N.,,Roseville,MN,55113
,Cindy,,Clausen,214 Frank Street,,St. Paul,MN,55106
"August 31, 2007",Jessie,,Clausen,814 Griggs Street North,,St. Paul,MN,55104
,Richard,P.,Clem,P.O. Box 14957,,Minneapolis,MN,55414
"August 17, 2003",Christa,,Close,3070 Glenden Ter,,Golden Valley,MN,55422
"January 18, 2005",Harold,,Clough,8533 60 1/2th Ave. North,,New Hope,MN,55428
"February 19, 2004",David,,Cobb,1301 W. 143rd Street   apt 235,,Burnsville,MN,55306
"June 14, 2005",Jan Morrissey,,Cobian,114 West 45th Street,,Minneapolis,MN,55409
"March 14, 2007",Timothy,M.,Cody,2105 Randolph Avenue,,St. Paul,MN,55105
"September 16, 2004",Richard,,Cogill,Trinity Church 322 Second St.,,Wayzata,MN,55331
"October 24, 2001",Burt,,Cohen,220 South Sixth Street,Suite 500,Minneapolis,MN,55402
"November 02, 2003",Diana,,Cohen,117 Redwood Drive,,Apple Valley,MN,55124
,Betty,,Collins,2487 Lockwood Dr.,,St. Paul,MN,55120-1745
"August 08, 2006",Laura,,Conger,1324 Coach Road Apt. 134,,St. Paul,MN,55108
"August 29, 2005",Caroline,,Conrad,3305 Hennepin Ave. So. Apt 201,,Minneapolis,MN,55408
,Marian,,Cooney,3804 Inglewood Avenue,,Minneapolis,MN,55416
"July 27, 2004",Sue,,Coonradt,13731 Pineview Lane,,Dayton,MN,55327
"January 11, 2004",Tove,,Corbett,5974 Hobe Lane,,White Bear Lake,MN,55110
"January 28, 2002",Rebecca,,Corry,406 Holly Ln. N.,,Oakdale,MN,55128-7035
"March 07, 2009",Audrey,,Countryman,4725 Lagoon Drive,,Mound,MN,55364
"January 11, 2004",Margaret,,Countryman,1244 Ashland Ave,,St. Paul,MN,55104
"September 03, 2002",Mark,,Countryman,5220 W. Lake Nokomis Pkwy,,Minneapolis,MN,55417
"August 31, 2001",Mitch,,Cox,4800 Wells Fargo Center,90 South Seventh Street,Minneapolis,MN,55402
,Linda,,Crawford,4632 Vincent Ave. So.,,Minneapolis,MN,55410
"August 17, 2003",Katrina,,Creswell,142 Kent St,,Wausau,WI,54403
"January 28, 2002",Randall,,Croce,1117 Churchill St.,,St. Paul,MN,55103
"August 31, 2001",Bob,,Crosby,4000 US Bank Place,601 Second Avenue South,Minneapolis,MN,55402
,Paula,,Crouse,17075 Trenton Lane,,Eden Prairie,MN,55347
,S.L.,,Culliton,1408 Birmingham St,,St. Paul,MN,55106
,Janice,,Cyphers,930 Brenner Ave.,,Roseville,MN,55113
"November 13, 2006",Joyce,,Dahl,640 N. Dale Court,,Shoreview,MN,55126
,Philip,,Dahl,7077 44th Street North,,Oakdale,MN,55128-2628
,Shirley,,Dahl,1230 Polk Street,,Shakopee,MN,55379
"August 17, 2003",Michelle,,Dahlager,9006 Nevada Avenue N,,Brooklyn Park,MN,55445
"August 08, 2006",Dorothy,,Dahle,6301 ColonyWay 2B,,Edina,MN,55435
,Addell,,Dahlen,4019 - 18th Avenue South,,Minneapolis,MN,55407
"August 08, 2006",Carol,,Daly,1235 Yale Place #1205,,Minneapolis,MN,55403
"August 17, 2003",Brenda,,Damiani,12510 43rd Avenue N,,Plymouth,MN,55442
"August 17, 2003",Steven,,Danielson,RR 1 Box 49,,Caddot,WI,54727
,Colleen,,Danner,958 West County Road B,,Roseville,MN,55113
"November 07, 2005",Natalia,,Danylkova,2231 119th Ave. N.,,Blaine,MN,55449
,James,,Davies,1923 3rd Avenue S,,Minneapolis,MN,55404
,Martha,,Davis,805 Wilderness Run Road,,Eagan,MN,55123
"March 14, 2007",Rebecca,J.,Davis,1940 Inca Lane,,New Brighton,MN,55112
,Robert,A.,Davis,1033 Manor Drive,,Mason City,IA,50401
,Karol,,Dayton,3415 Pilgrim Lane,,Plymouth,MN,55441
,Britt,,De Lange,6571 Mistral Lane,,Eden Prairie,MN,55346
"November 02, 2003",George,,DeBoer,7365 Howard Lane,,Eden Prairie,MN,55344
,Sandy,,Decker,9301 Stevens,,Bloomington,MN,55420
,Monica,,DeLong,2009 Emerald Lane,,Eagan,MN,55122
,Cathy,,Denison,562 Lincoln Ave,,St. Paul,MN,55102
"June 14, 2005",Emily,,Dennison,221 Galtier Place,,Shoreview,MN,55126
,Courtney,B.,Derrickson,3709 14th Avenue S,,Minneapolis,MN,55407
"August 17, 2003",Juliane,,Derry,475 Glenwood Street,,Roseville,MN,55113
"November 02, 2003",Marsha,,Dettloff,17924  69th Place North,,Maple Grove,MN,55311
"January 18, 2005",John,,Dewey,19-1st Street South B2202,,Minneapolis,MN,55401
"July 27, 2004",Darlene,,Dexter,3565 Golfview Drive,,White Bear Lake,MN,55119
,Scott,,Deyo,4605 Barhara Avenue E.,,Inver Grove Heights,MN,55077
,Carlos,,Diaz,4201 Garfield Avenue South,,Minneapolis,MN,55409-1858
"July 27, 2004",Kathleen,,Digre,1444 E. Tomahawk Dr.,,Salt Lake City,Utah,84103
"November 04, 2004",Vonnie,,Dinter,6001 Fremont Avenue So.,,Minneapolis,MN,55419
"August 31, 2001",Jerry,,Dion,1944 Midland Hills Rd.,,Roseville,MN,55113
"August 31, 2001",Jim,,Diracles,4001 US Bank Place,601 Second Avenue South,Minneapolis,MN,55402
,Lois,,Dirksen,410 Groveland Avenue,#302,Minneapolis,MN,55403
,Laura,,Dodd,10679 Utica Road South,,Bloomington,MN,55437
,Lisa,,Doering,2743 Emerson Avenue South,,Minneapolis,MN,55408
"November 02, 2003",Elyce,,Doffing,Risdall Advertising Agency,550 Main Street,New Brighton,MN,55112
"November 02, 2003",Elizabeth,,Doherty,1267 Marion Street,,St. Paul,MN,55117
"January 18, 2005",Donna,,Dokken,3568 Mississippi Dr. NW,,Minneapolis,MN,55433
"July 27, 2004",Channing,,Donahower,5 Meadow Lane,,Dellwood,MN,55110
"September 29, 2006",Cindy,,Doornink,7594 13th St N,,Oakdale,MN,55128
"August 30, 2002",Judith,,Dorin,18862 Barrington Dr,,Eden Prairie,MN,55346
,James,,Dorn,Church of Saint Patrick,6820 Saint Patrick Lane,Edina,MN,55439-1633
,Peggy Joanne,,Dorwick,1933 Laurel Avenue,,St. Paul,MN,55104
"January 18, 2005",Muriel,,Dostal,1280 Larpenteur West #208,,St. Paul,MN,55113
,Bernice,,Dougherty,1101 Sibley Memorial Highway,,Lilydale,MN,55118
"August 17, 2003",Steven,,Dow,333 Wartburg Place,,Dubuque,IA,52003
"November 05, 2002",Mary Theresa,,Downing,19522 Waterford Court,,Shorewood,MN,55331
"September 29, 2006",Chris,,Dozier,4825 Knox Ave S,,Minneapolis,MN,55419
,Marin,,Drews,Buchanan Lane SE,,Cambridge,MN,55008
"September 09, 2008",Doree,,Du Toit,9194 Jewel Lane North,,Maple Grove,MN,55311
,Joanne,,Ducommun,13105 Oakland Drive,,Burnsville,MN,55337
"July 27, 2004",Russ,,Dudero,1171 Hadley Avenue N.  Apt 117,,St. Paul,MN,55128
,Vickey,,Dudgeon,3200 Trails End,,Norman,OK,73026
,Vicki,,Duncomb,10019 Gristmice Ridge,,Eden Prairie,MN,55347
"August 17, 2003",Peter,,Durow,1200 Henry Street,,Prescott,WI,54021
"August 17, 2003",Jennifer,,Durst,1071 Cherry Street,,Owatonna,MN,55060
,Signe,,Dysken,4838 Colfax Ave. So.,,Minneapolis,MN,55409
"June 14, 2005",Mona,,Eastman,4009 Chicago Avenue South,,Minneapolis,MN,55407
"November 02, 2003",Joseph,,Ebersole,871 Tulpehocken Rd,,Myerstown,PA,17067
"January 18, 2005",Margo,,Eckman,1225 LaSalle Ave. #2004,,Minneapolis,MN,55404
"October 24, 2001",Cory,,Edmunds,2001 Killebrew Drive,Suite 310,Minneapolis,MN,55425
"January 09, 2006",Brenda,,Edstrom,1205 Khyber Lane NE,,Columbia Heights,MN,55421
,J. Michelle,,Edwards,1844 Rome Avenue,,St. Paul,MN,55116-2029
"January 18, 2005",Inez,,Egerstrom,1350 Nicollet #924,,Minneapolis,MN,55403
"May 01, 2007",J.,,Eickhoff,7320 Trotters Circle,,Chanhassen,MN,55317
"February 28, 2006",Patricia Dooley,,Eid,4526 Pleasant Drive,,Arden Hills,MN,55112
,Linda,,Eijadi,11002 Oregon Curve,,Bloomington,MN,55438
"January 09, 2006",Laurie,,Eittreim,14413 64th Avenue N.,,Maple Grove,MN,55311
"August 17, 2003",Denise,,Elbel,1084 Rosewood Drive,,Grape Vine,TX,76051
"January 18, 2005",Florence,,Ellefson,7540 Edinborough Way #1111,,Minneapolis,MN,55435
"August 31, 2001",Scott,,Eller,4000 US Bank Place,601 Second Avenue South,Minneapolis,MN,55402
"August 17, 2003",Arny,,Ellingrod,12008 3/4 Magnolia Boulevard,,Valley Village,CA,91607
,Nancy,,Ellis,3223 Washburn,,Minneapolis,MN,55412
,Paul,,Emch,4234 Valley View Road,,Edina,MN,55424
"August 17, 2003",Christina,,Emery,3271 Dodd Lane,,Eagan,MN,55121
"August 04, 2004",Maxine,,Enfield,8400 Manning Ave. N.,,Stillwater,MN,55082
"January 18, 2005",Martha,,Engebretson,"3530 18th Ave. South, #6",,Minneapolis,MN,55406
,Dori,,Engelhardt,5222 Girard Avenue N.,,Minneapolis,MN,55430-3425
,Rev. Randy,,Engle,2901 Waterloo Dr,,Troy,MI,48084
"January 18, 2005",June,,Engleson,2606 Raleigh Ave. South,,St. Louis Park,MN,55416
"January 17, 2003",Richard,,Engwall,4452 Gaywood Dr.,,Minnetonka,MN,55345
"January 09, 2006",Pam,,Enstol,22118 Orchid Avenue,,Rogers,MN,55374
"March 14, 2003",Sally,,Enstrom,2524 Boone Ave S,,St. Louis Park,MN,55426
"January 09, 2006",Heddy,,Erickson,4748 Georgia Avenue N.,,Crystal,MN,55428
,Lou Cooney,,Erickson,3933 Kipling Avenue South,,St. Louis Park,MN,55416
"January 09, 2006",LuVerne,,Erickson,8465 Medicine Lake Road,,Golden Valley,MN,55427
"March 20, 2007",Marilynn Rochelle,,Erickson,890 Monterry Drive,,Shoreview,MN,55126
,Rod,,Erickson,P.O. Box 553,,Sandstone,MN,55072-0553
,Shirley,,Erickson,240 South Street,,Owatonna,MN,55060
"January 11, 2004",James,,Erlandson,1901 Walter St.,,Maplewood,MN,55109
"November 02, 2003",Chief Folarin,,Ero-Phillips,1806 Riverside Ave,Suite #3,Minneapolis,MN,55454
,Mark,,Ertl,5104 Colfax Avenue South,,Minneapolis,MN,55419-1148
"January 18, 2005",Evelyn,,Eskeli,1421 Yale Place #905,,Minneapolis,MN,55403
,Mari,,Espeland,2371 Chilcombe Avenue,,St. Paul,MN,55108-1627
"August 17, 2003",Duane,,Esterly,14015 44th Pln N. #6,Apt. 6,Plymouth,MN,55446
"July 22, 2005",Bryan,,Ettestad,5120 Edina Industrial Blvd.,,Minneapolis,MN,55439
,Jennifer,,Evenson,5329 James Avenue North,,Brooklyn Center,MN,55430
"August 17, 2003",Jennifer,,Evenson,872 Trenton Lane N,,Plymouth,MN,55441
"January 11, 2004",Les,,Everett,"1988 Brewster St, #109",,St. Paul,MN,55108
,Arne,,Everson,447 NW 4th Ave.,,Cambridge,MN,55008
,Douglas,,Ewart,PO Box 50471,,Minneapolis,MN,55405
"March 11, 2004",Joyce,,Fagerness,4538 West 129th St.,,Savage,MN,55378
,Lynn,,Fagerness,"401 E. Burnsville Pkwy, #327",,Burnsville,MN,55337
,Helen,,Fagnant,16696 Galena Ave.,,Rosemount,MN,55068
"October 24, 2001",Keith,,Fahnhorst,800 Nicollet Mall,JMN 13501,Minneapolis,MN,55402
"September 09, 2008",Elizabeth,,Fair,3413 47th Avenue North,,Minneapolis,MN,55422
"January 11, 2004",Philip,,Fandrei,8357 100th St. W,,Minneapolis,MN,55438
"August 31, 2007",Ruth,,Fardig,1020 E. 17th Str. #540,,Minneapolis,MN,55404
"August 31, 2001",Althea,,Faricy,173 Maria Avenue,,St. Paul,MN,55106
,Jessica,,Fedje,618 Thirteeneth Avenue N,,South St. Paul,MN,55075
,Thomas,,Ferry,1366 Schlett St.,,St. Paul,MN,55117
"June 14, 2005",Helen,M,Fett,5912 West 34th Street,,Minneapolis,MN,55416
"March 30, 2001",Janis,,Fike,10046 Irwin Circle,,Bloomington,MN,55437
"February 10, 2007",Mary Lou Larson,,Fine,4101 East 96th St.,,Bloomington,MN,55425
,Darla,J.,Fischer,N.5273 - 490th Street,,Ellsworth,WI,54011
"February 28, 2006",Emily,,Fischer,3205 Grand Avenue South,,Minneapolis,MN,55408
,Jeanne Marie,,Fitch,315 - 3rd Street North,Apt. E,South St. Paul,MN,55075-2063
,Mrs. Thomas,,Fitch,3552 - 16th Avenue South,,Minneapolis,MN,55407
,Marlys,,Fiterman,308 Arthur Street,,Edina,MN,55343
,John,,Fitzgerald,6437 Norris Lake Road,,Elk River,MN,55330
"November 13, 2007",Katie,,Fitzpatrick,7571 Co Rd. 8 SW,,Waverly,MN,55390
,Jonathan,,Flak,2624 38th Avenue South,,Minneapolis,MN,55406-1752
"August 04, 2004",Gary,,Flatgard,2523 Portland Ave. #509,,Minneapolis,MN,55404
,Arlene,,Flatt,"1700 Four Oaks Rd,",#351,Eagan,MN,55121
,Clarence,,Fleming,1620 Randolph Avenue,,St. Paul,MN,55105
"September 20, 2004",Richard,,Flodin,7530 Atherton Way,,Eden Prairie,MN,55346
,Lynn,,Flogstad Lenort,8301 Colfax Avenue S.,,Bloomington,MN,55420-2109
"September 15, 2004",Sandra,,Flores,1109 Rainetta Dr.,,Eau Claire,WI,54701
,Dennis,,Foderberg,5949 Royal Oaks Drive,,Shoreview,MN,55126
,Michael,,Foote,417 Union Street,,Northfield,MN,55057
"February 28, 2006",Ethel,,Forbes,2122 Vernon Drive South,,Minnetonka,MN,55305
"August 12, 2003",Jathan,,Ford,PO Box 13481,,Minneapolis,MN,55414
,Kathryn,,Ford,1100 Sycamore Lane,,Plymouth,MN,55441
"October 24, 2001",Rich,,Forschler,2200 Wells Fargo Center,90 South 7th St.,Minneapolis,MN,55402
,Jeff,,Forseth,9092 Waverly Court,,Eden Prairie,MN,55347
"August 17, 2003",Susan,,Forsmark,5330 Sequoia Drive,,Minnetonka,MN,55345
,Barbara,,Foss,3647 Windtreee Ct.,,Eagan,MN,55123
"January 09, 2006",Monica,,Foss,1284 Carriage Hills Drive,,Eagan,MN,55123
,Jean,,Fossell,419 Centennial Drive,,Roseville,MN,55113
"August 08, 2006",Julie,,Fossell,952 Monterey Court South,,Shoreview,MN,55126
,Melinda,,Fossell,303 12th Street N,Apt 304,Wheaton,MN,56296
,Betty,,Fousek,504 Hoyt Avenue,,St. Paul,MN,55101-3017
,Sarah,,Fowlston,3436 Minnehaha Avenue South,,Minneapolis,Mn,55406
,Jane,,Fox,112027 Warner Circle,,Chaska,MN,55318
,Helene,,Frank,3630 Phillips Parkway,No. 805,St. Louis Park,MN,55426
,Jackie,,Franklin,10229 Toledo Circle,,Bloomington,MN,55437
,James,E.,Frazier,3445 Irving Avenue South,,Minneapolis,MN,55408
"November 05, 2002",Gloria,,Fredkove,12020 Mayflower Circle,,Minnetonka,MN,55305
,Gary,,Fredrickson,14337 Waco Street N.W.,,Ramsey,MN,55303
"August 17, 2003",Janet,,Fredrickson,6112 Ridgeway Rd,,Edina,MN,55436
"October 24, 2001",Brian,,Freeman,2200 Norwest Center,90 South 7th St.,Minneapolis,MN,55402
"November 07, 2005",Deborah,,Freeman,6409 Cavell Ave. N.,,Brooklyn Park,MN,55428
,Janet,,Freemore,8378 Longlake Rd,,St. Paul,MN,55112
,Dr. Cheryl,,Freske,1440 Albany Avenue,,St. Paul,MN,55108
,Laurie,,Friend,15004 Everleigh Circle,,Rosemount,MN,55068
"August 30, 2002",Ellen,,Frilseth,719 Emerald Ridge,,Roseville,MN,55113
"November 13, 2007",Jane,,Frymire,5546 Elliot Avenue So.,,Minneapolis,MN,55417
"August 17, 2003",Mark,,Fulfs,P.O. Box 41,,Sebeka,MN,56477
"August 08, 2006",Kim,,Funk,6328 Barrie Road  #2K,,Edina,MN,55435
"January 11, 2004",Sheryl Birk,,Gable,5440 Elliot Ave,,Minneapolis,MN,55417
"August 17, 2003",Aaron,,Gabriel,37373 Hanson Road,,Bigfork,MN,56628
"August 17, 2003",Joseph,,Gabrielsen,2640 Hayes Avenue N,,Minneapolis,MN,55418
,Doris,,Gadow,932 Park St.,,St. Paul,MN,55117
,Amelia,,Gallagher,7541 Ridgeway Road,,Golden Valley,MN,55426
"January 09, 2006",Beth,,Gangloff,6814 W. 26th Street,,St. Louis Park,MN,55426
"October 29, 2001",Inez,,Gantz,574-B N. Brown Rd.,,Long Lake,MN,55356-9301
"September 29, 2006",Uva,,Gardner,1666 Coffman St #329,,St Paul,MN,55108
"January 18, 2005",Helen,,Garnaas,1200 Nicollet Mall #913,,Minneapolis,MN,55403
"October 24, 2001",Rox,,Gehle,1392 Baldur Park Road,,Wayzata,MN,55391
,Barbara,,Geier,9381 Courthouse Blvd Court East,,Inver Grove Heights,MN,55077
,Patrick,,Geiger,14281 Thrush Street N.W.,,Andover,MN,55304
,Sandra,,Gens,1466 Highview Avenue,,Eagan,MN,55121-1107
"January 18, 2005",Vivian,,Gens,5210 Villa Way #149,,Minneapolis,MN,55436
"June 14, 2005",Deborah,,Gensmer,1618 Park Road,,Bloomington,MN,55425
,Dionne,,Genz,1885 Asbury Street,,Falcon Heights,MN,55113
"January 17, 2003",Cindy,,Gerhig,"Jerome Foundation, 125 Park Square Court",400 Sibley St. ,St. Paul,MN,55101-1928
"August 08, 2006",Gordon,,Gerriets,501 - 8th Street SE,,Minneapolis,MN,55414
"March 30, 2001",Julie,,Gershgol,8326 13th Avenue South,,Bloomington,MN,55425
,Helen,L.,Gibbon,9252 West 22nd Lane,,St. Louis Park,MN,55426
,Suzanne,,Gill,8380 Montgomery Court,,Eden Prairie,MN,55347
,Dennis,,Gimmestad,3638 Huntington Avenue,,Minneapolis,MN,55416
,Debra,,Gisch,Perfect Pitch,4505 Oak Leaf Drive,White Bear Lake,MN,55127
"January 28, 2002",Karen,,Gjerstad,4733 Isabel Ave.,,Minneapolis,MN,55406
,Leon,,Gladish,1414 Summit Avenue,,St. Paul,MN,55105
"August 17, 2003",Rebecca,,Glawe-Strom,3010 39th Avenue S.,,Minneapolis,MN,55406
"January 18, 2005",James,,Glewwe,3925-3rd St. Northeast #2,,Columbia Heights,MN,55421
"January 28, 2002",Jeri,,Glick,2081 Rosewood Lane S.,,Roseville,MN,55113
,Brenda,,Glodowski,6432 Georgia Avenue North,,Brooklyn Park,MN,55428
,Robert,,Glover,17508 Manor Road,,Minnetonka,MN,55345
,Emilia,,Godinez,1116 Lawson Ave.E,#2,St. Paul,MN,55106
"January 09, 2006",Ed,,Goetz,5240 Logan Avenue S.,,Minneapolis,MN,55419
"January 09, 2006",Jeff,,Goetz,312 W. 65th Street  # 201,,Richfield,MN,55423
"March 11, 2004",Tammi,,Goetzke,P.O. Box 135,,Vermillion,MN,55085
,Janice,,Goldstein,111 Cambridge Street,,St. Paul,MN,55105
,Rosemary,,Golias,Box 50825,,Mendota,MN,55150
"January 18, 2005",Heidi,,Good,1745 Archer Court,,Plymouth,MN,55447
,Mark,,Goodman,8102 Highwood Dr. Apt. B310,,Bloomington,MN,55438
,Linda,,Goodrie,150 Case Ave,,St. Paul,MN,55117
"August 31, 2001",Cathy,,Gorlin,4000 US Bank Place,601 Second Avenue South,Minneapolis,MN,55402
"January 11, 2004",Dennis,,Grabuski,8425 173rd St. W,,Lakeville,MN,55044
"January 09, 2006",Christie,,Grandbois,5909 Hillsboro Avenue N.,,New Hope,MN,55428
"July 27, 2004",Nedra,,Granquist,433 S. 7th Street #1627,,Minneapolis,MN,55415
,Kurt,,Grasse,300 - 11th Avenue N.W.,,New Brighton,MN,55112
,Tom,,Greake,13840 Sunset Lake Drive,,Burnsville,MN,55337
"January 20, 2003",Joanne,,Green,6475 Barree Rd,,Edina,MN,55435
"November 02, 2003",Tina,,Greenberg,2205 Hillside Circle,,Minnetonka,MN,55305
"January 18, 2005",David,,Gregg,517 - 20th Ave. South,,Minneapolis,MN,55454
"August 12, 2003",Karol Klint,,Greupner,Plymouth Fine Arts Council,3400 Plymouth Blvd,Plymouth,MN,55447
"August 17, 2003",Kirsten,,Griebenow,169 River Edge Way,,Fridley,MN,55432
"March 23, 2005",Duncan,,Griffin,3010 West 84th Street,,Bloomington,MN,55431
,June,,Griffin,3308 5th Avenue South,,Minneapolis,MN,55408
"October 24, 2001",Kelly,,Griffith,3300 Wells Fargo Center,90 South Seventh Street,Minneapolis,MN,55402
"March 30, 2001",Mark or Norman,,Grimme,8150 Utah Avenue South,,Bloomington,MN,55438
"January 11, 2004",H. Theodore,,Grindal,514 River Street,,Minneapolis,MN,55401
,Alice,M.,Griser,1856 Marshall Avenue,,St Paul,MN,55104
"September 16, 2004",Kirsti,,Grodahl,1620 West 98th St. Ste. 100,,Bloomington,MN,55431
"February 19, 2004",Jeanne,,Gronholm,9636 Minnesota Lane N.,,Maple Grove,MN,55369
"October 24, 2001",Kathy,,Gross Schoen,2800 LaSalle Plaza,800 LaSalle Avenue,Minneapolis,MN,55402
"November 05, 2002",S.B.,,Grossman,2611 Lynn,,Minneapolis,MN,55416
"January 18, 2005",Audrey,,Grote,5745 Duncan Lane,,Minneapolis,MN,55436
"February 20, 2004",Janet,,Grove,Basilica 88 No. 17th St.,,Minneapolis,MN,55403
"March 23, 2005",Nancy,,Grover,8332 Harrison Road,,Bloomington,MN,55437
,Yvonne,,Grover,17419 Tessmer Court,,Eden Prairie,MN,55347
,Tony,,Grudt,2114 Goodrich Avenue,,St. Paul,MN,55105
"June 14, 2005",David Mark,,Grundhoefer,2754 Georgia Avenue South,,Minneapolis,MN,55426
"February 28, 2006",Joan,,Gudmestad,5321 Girard Avenue South,,Minneapolis,MN,55419
"November 02, 2003",Craig,,Gudmundson,135 5th Ave. So,,Brownton,MN,55312
"January 18, 2005",Elaine,,Gunderson,12984 Nicollet Ave. South #201,,Burnsville,MN,55337
"August 12, 2003",Alex,,Gusera,182 Kent St,,St. Paul,MN,55102
"August 17, 2003",Amy,,Gustafson,8120 Hill Trail N.,,Lake Elmo,MN,55042
"August 31, 2001",Craig,,Gustafson,1538 Haller Ct. S.,,Maplewood,MN,55119
,Harvey,L.,Gustafson,1212 - 36 1/2 Avenue N.E.,,Minneapolis,MN,55418-1304
"January 18, 2005",Jack,,Gustafson,12800 Marion Lane W. #717,,Minnetonka,MN,55305
,Jodi,,Gustafson,"1157 Hague Avenue, #7",,St. Paul,MN,55104
"January 18, 2005",Steven,,Haasl,"401 South 1st Street, #1805",,Minneapolis,MN,55401
"August 31, 2007",Missy,,Habeck,4107 Reservoir Blvd.,,Columbia Heights,MN,55421
"November 13, 2007",Patricia,,Habeck,3315 Lanewood Lane North,,Plymouth,MN,55447
"March 26, 2007",Carolyn,M.,Hackel,3600 Wooddale Avenue S.  # 312,,St. Louis Park,MN,55416
"February 19, 2004",Vivian,,Hagen,143529 1st Place N.,,Maple Grove,MN,55369
"January 09, 2006",Steve,,Hagstrom,7941 60th Avenue N.,,Minneapolis,MN,55428
"August 17, 2003",Karla,,Haij-Collins,11865 Flintwood St NW,,Coon Rapids,MN,55448
"November 02, 2002",Denise,,Hainlin,13936 54th Avenue N. #3,,Plymouth,MN,55446
,David,,Halaas,PO Box 1209,,Minneapolis,MN,55440
"January 18, 2005",Frances,,Halder,4233 Nicollet Avenue,,Minneapolis,MN,55409
"October 24, 2001",Jim,,Hale,Target Corporation,1000 Nicollet Mall,Minneapolis,MN,55403
"October 24, 2001",Jantze,,Haley,655 Nicollet Mall,,Minneapolis,MN,55402
"January 09, 2006",Rodney,,Halling,P.O. Box 322,,Walker,MN,56482
"August 30, 2002",Terry,,Halonen,3246 Sumter Ave S.,,St. Louis Park,MN,55426
,Debra,,Halstenson,3575 - 206th Avenue N.W.,,Anoka,MN,55303
,Bob,,Halter,2919 Aldrich Trail,,St. Paul,MN,55125
,Joanne,,Halvorsen,4077 Foss Road,,Minneapolis,MN,55421
"January 18, 2005",Evenelle,,Hamlin,3401 Irving Ave. North,,Minneapolis,MN,55421
"July 27, 2004",Heidi,,Hammond,15024 Dutchman Way,,Apple Valley,MN,55124
"August 08, 2006",Christian,,Hanninen,1726 Riverside Drive,,Shakopee,MN,55379
"February 08, 2007",Jennifer,,Hans,1370 E. Balsam Street,,Eagan,MN,55123
"January 18, 2005",Leona,,Hansen,3518 Pierce Street NE,,Minneapolis,MN,55418
"August 17, 2003",Beth,,Hanson,4898 Echo Avenue,,St. Ansgar,IA,50472
"August 17, 2003",Calvin,,Hanson,2800 Girard Ave. S. #107,,Minneapolis,MN,55408
,Dolores,,Hanson,4300 W. River Pkwy,#137,Minneapolis,MN,55406
"January 18, 2005",Ellen,,Hanson,"5015 - 35th Ave. S., Apt. 521",,Minneapolis,MN,55417
"March 14, 2003",Jackie,,Hanson,1269 Ashland Ave,,St. Paul,MN,55104
,Jerry,,Hanson,3459 York Avenue North,,Robbinsdale,MN,55422
,John,,Hanson,Coda Music Technologies,6210 Bury Drive,Eden Prairie,MN,55346-1718
"February 19, 2004",Judy,,Hanson,12263 88th Place North,,Maple Grove,MN,55369
"February 19, 2004",Marc,,Hanson,9100 Annapolis Lane,,Maple Grove,MN,55369
,Orrine,,Hanson,11378 195th St.,,Little Falls,MN,56345
,Ted,,Hanwick,17 Westwood Road,,Minnetonka,MN,55305
,Lisa,V.,Harden,1170 Cushing Circle,Apt 327,St. Paul,MN,55108
,Joanna,,Harms,1178 Dayton Ave,,St. Paul,MN,55104
"January 11, 2004",Shirlee,,Harold,7232 Lake Ridge Drive,,Savage,MN,55378
"August 31, 2005",Charles,,Harpke,10550 Lyndale Avenue So.,,Bloomington,MN,55420
"November 05, 2002",David,,Harris,Voices of Sepharad,"255 E. Kellogg Blvd, #305",St. Paul,MN,55101
,Paula,,Harris,944 Silvia Lane,,Shoreview,MN,55126
"September 20, 2001",Merrie,,Harrison,3220 33rd Avenue NE,,St. Anthony,MN,55418
"January 09, 2006",Sara,,Harrison,4536 Aldrich Avenue S.,,Minneapolis,MN,55419
,Steve,,Harrison,Missions Programs,6820 Auto Club Road,Bloomington,MN,55438
"January 18, 2005",Edna,,Hart,148 - 97th St. West,,Bloomington,MN,55420
"January 18, 2005",James,,Hart,8596 Kimbro Lane North,,Stillwater,MN,55082
"June 14, 2005",Shannon,,Hart,214 Mackubin Street,,St. Paul,MN,55102
"February 20, 2004",Beth,,Hartman,640 Marie Avenue W.,,Mendota Heights,MN,55118
"November 05, 2002",Morrie,,Hartman,5234 Girard Ave S.,,Minneapolis,MN,55419
"March 30, 2001",Sylvia,,Hasse,5256 E 180th Street,,Prior Lake,MN,55372
"April 26, 2006",Lorraine,S.,Hasselquist,2950 Dean Parkway,,Minneapolis,MN,55416
,Tony,,Hauser,169 Seymour Avenue S.E.,,Minneapolis,MN,55414
,Allan,,Hawkins,10300-39th Ave. No.,,Plymouth,MN,55441
"March 11, 2004",Jane,,Hayek,8114 Dupont Avenue South,,Bloomington,MN,55346
"November 02, 2003",Shai,,Hayo,1911 Grand Avenue #3,,St. Paul,MN,55105
"July 28, 2004",Carol,,Heath,233 W. 52nd Street,,Minneapolis,MN,55419
,Jane,,Heaton,1048 Lincoln,,St. Paul,MN,55105
"November 02, 2003",The,,Heegaards,13860 Lake Street Extension,,Minnetonka,MN,55345
"January 18, 2005",Linda,,Hegg,2230 Midland Grove #308,,Roseville,MN,55113
"September 20, 2001",Rebecca,,Heidelberg,PO Box 50704,,Mendota,MN,55150
"May 06, 2006",Amy,,Heilman,1165 Ravenswood Street,,Shoreview,MN,55126
"January 18, 2005",Andrew,,Heintz,2225 Ranch View Lane #3,,Plymouth ,MN,55447
,Walter,,Heinzen,17886 82nd Ave N,,Maple Grove,MN,55311
"August 17, 2003",Erick,,Hellie,917 Vijobi Trail,,Amery,WI,54001
,Lynn,,Helm,Star Tribune,425 Portland Avenue,Minneapolis,MN,55488
"October 24, 2001",Carol,,Helminen,"5995 Wedgewood Lane, #73",,Plymouth,MN,55446
"August 08, 2006",Sue,,Henderson,1706 Juliet Avenue,,St. Paul,MN,55105
"March 07, 2009",Eric,,Hendrickson,1813 Juliet Avenue,,St. Paul,MN,55105
,Nancy Jo,,Henjum,9006 Underwood Lane N,,Maple Grove,MN,55369
"February 19, 2004",Mary Anne,,Hennen,1005 15th St. W.,,Hastings,MN,55033
"October 24, 2001",Gary,,Hennes,"8601 73rd Avenue North, #18",,Brooklyn Park,MN,55428
"August 31, 2001",Pat,,Hennessy,4000 US Bank Place,601 Second Avenue South,Minneapolis,MN,55402
"October 24, 2001",Kris,,Henning,1776 Knox Avenue S.,,Minneapolis,MN,55403
,Lee,,Her,St. Paul Hmong Alliance Church,1770 McMenemy Street,Maplewood,MN,55117
"January 18, 2005",Margaret,,Herbrandson,5250 Villa Way #A230,,Minneapolis,MN,55436
,Dawn,,Herkenhoff,16000 Baywood Lane,,Eden Prairie,MN,55346
,Paul,A.,Hermodson,921 Bayless Avenue N  # F,,St. Paul,MN,55114-1151
"January 09, 2006",Lisa,,Herr,2824 33rd Avenue S.,,Minneapolis,MN,55406
,Mary,,Herrington,"4833 Saratoga Blvd, #507",,Corpus Christi,TX,78413
,Betty,M.,Hess,1101 Sibley Memorial Highway,#507,Lilydale,MN,55118
"August 30, 2002",Marilyn Zutz,,Heuer,2480 N. Churchill,,St. Paul,MN,55113
,Jackie,,Heutmaker,2710 Dale Street,#308,St.Paul,MN,55113
"March 05, 2002",Jamie,,Hickok,8419 Virginia Circle N,,St. Louis Park,MN,55426
"March 22, 2005",Connie,,Hicks,6933 Unity Avenue North,,Brooklyn Center,MN,55429
,James,,Hild,14511 Minnehaha Place,,Wayzata,MN,55391
,Jim,,Hild,All Saints Lutheran,15915 Excelsior,Minnetonka,MN,55345
"March 30, 2001",Anne,,Hill,5128 11th Avenue South,,Minneapolis,MN,55417
,Paul,,Hill,2930 - 36th Avenue South,,Minneapolis,MN,55406
,Maren Eggert,,Hilton,1551 Sargent Avenue,,St. Paul,MN,55105-2334
,David,,Hinrichs,4704 - 10th Avenue South,,Minneapolis,MN,55407
,Scott,,Hintermeyer,10130 Girard Avenue South,,Bloomington,MN,55431
"January 18, 2005",Karen,,Hinz,4194 - 44th St. West,,Edina,MN,55424
"March 30, 2001",Jennifer,,Hipple,4538 Vincent Avenue N,,Minneapolis,MN,55412
,Deborah,,Hisdahl,4039 Hubbard Avenue North,,Robbinsdale,MN,55422
,Mary,,Hitzeman,109 E. School Street,,Owatonna,MN,55060
,John,,Hobday,5824 Beard Ave. So.,,Edina,MN,55410
,Pauline,,Hocks,14623 Cobalt Lane,,Rosemount,MN,55068
,Lynn,,Hodulik,1612 Bayard Ave.,,St. Paul,MN,55116
,Marjean,,Hoeg,15381 Red Oaks Road,,Prior Lake,MN,55372
"February 08, 2007",Barb,,Hoernemann,10836 Buchanan St. NE,,Blaine,MN,55434
,Charles,,Hoff,15563 Ridgemont Avenue SE,,Prior Lake,MN,55372-1841
"February 20, 2004",Susan,,Hofflander,3845 Orleans Lane N.,,Plymouth,MN,55441
,Jim,,Hoffman,3897 NW 57th Avenue,,Owatonna,MN,55060
"March 22, 2005",Marion,,Hoffman,646 Dale Court South,,Shoreview,MN,55126
"November 02, 2003",The,,Hoffmans,6470 Fox Path,,Chanhassen,MN,55317
"January 18, 2005",Signe,,Hofstad,3408 31st Ave. Northeast,,Minneapolis,MN,55418
,Susan,,Hogan-Albach,Star Tribune  425 Portland Avenue,,Minneapolis,MN,55488
,Josh,,Hogberg,"NWC, 3003 Snelling Avenue N",,St. Paul,MN,55113
"August 17, 2003",Robin,,Hokanson,7809 Major Avenue N,,Brooklyn Park,MN,55445
"March 11, 2004",Ted,,Hollan,19834 - 485th Aven.,,Hendricks,MN,56136
,Dr. Kenneth,,Holmen,4 Ironwood Lane,,North Oaks,MN,55127-2606
"August 05, 2004",Jeanette,,Holmen,224 Penisula Road,,Minneapolis,MN,55441
,Authur,,Holmgren,2530 Sumac Circle,,White Bear Lake,MN,55110
"November 02, 2003",Kelley,,Holschbach,Leisure Lane Center - Upper Level,7101 France Ave S,Edina,MN,55435
"August 17, 2003",Katherine,,Holt,PO Box 24194,,Apple Valley,MN,55124
"August 17, 2003",Chris,,Holtan,17142 Jaybell Court,,Lakeville,MN,55044
"August 12, 2003",Jenny,,Holte,3820 Orleans Lane,,Plymouth,MN,55441
"August 17, 2003",Sandra,,Holten,5465 Vinewood Ln N.,,Plymouth,MN,55442
,Tracy,,Holtz,P.O. Box 99,301 Main Street,Stewart,MN,55385
"January 18, 2005",Kathryn,,Holum,803 Osceola Avenue,,St. Paul,MN,55105
,Barbara,A.,Homce,3240 - 48th Avenue South,,Minneapolis,MN,55406
"January 18, 2005",Barbara,,Hope,2329 Wildwood Trail,,Minnetonka,MN,55305
"October 24, 2001",Deb,,Hopp,220 South Sixth Street,Suite 500,Minneapolis,MN,55402
,William,,Horn,4511 Browndale Ave.,,Edina,MN,55424
"November 02, 2003",Bill,,Houghton,1034 Summit Ave,,St. Paul,MN,51034
"June 14, 2005",Sarah,J.,Houser,6500 City West Parkway Suite 400,,Eden Prairie,MN,55344
,Garfield,Q.,Hoversten,6812 Cornelia Drive,,Edina,MN,55435
,Nona,,Hovey,Hope Presbyterian Church,7132 Portland Ave. So.,Richfield,MN,55423
,Amy,,Howard,1782 - 18th Avenue N.W.,,New Brighton,MN,55112
,James,,Howes,P.O. Box 121,,Princeton,MN,55371-0121
,Dan,,Hoxworth,Neighborhood House,179 Robie Street E.,St. Paul,MN,55107
"November 02, 2003",Maria,E.,Hoyos,10521 Cedar Lake Rd. Apt. 505,,Minnetonka,MN,55405
"February 10, 2007",Alice,,Huang,901 E. River Parkway,,Minneapolis,MN,55414
"January 18, 2005",Vernon,,Hubert,2950 Dean Pkwy #904,,Minneapolis,MN,55416
"January 18, 2005",Dorothy,,Huesers,300 Shelard Pkwy #106,,Minneapolis,MN,55426
"August 17, 2003",Michelle,,Hughes,8588 215th St. N,,Forest Lake,MN,55025
,Scott,,Hughes,3825 Eckberg Drive,,Minneapolis,MN,55429
"August 03, 2004",Beth,,Hulteng,10286 Winter Place,,Eden Prairie,MN,55347
"August 31, 2001",Anne,,Hunter,1171 Orchard Place,,Mendota Heights,MN,55118
"October 24, 2001",Roben,,Hunter,5850 Opus Parkway,Suite 220,Minnetonka,MN,55343
"August 12, 2003",Kristen,,Husby,"817 Smetana Rd, #4",,Hopkins,MN,55343
"January 18, 2005",S. Aino,,Husen,2625 Boone Ave. South,,St. Louis Park,MN,55426
,June,,Husom,1522 Grand,,St. Paul,MN,55105-2230
,Ruth,,Husom,7 Fox Ridge Court,,West St. Paul,MN,55118-5916
,Anna Marie,,Huston,165 14th Ave. N.E.,,Minneapolis,MN,55413
,Beatrice,L.,Huston,8264 Xerxes Avenue South,,Bloomington,MN,55431
,Susan,M.,Hutterer,4715 South 35th Avenue,,Minneapolis,MN,55406-3846
,Paula,,Hylle,2918 - 65th Avenue,,Brooklyn Center,MN,55430
"January 28, 2002",Ledor,,Igboh,8842 Douglas Drive N,,Brooklyn Park,MN,55445
"November 02, 2003",The,,Ihrkes,16704 Hudson Avenue,,Lakeville,MN,55044
,Libby,,Imbrone,108 Maywood Place,,St. Paul,MN,55117
,Ed,,Immer,15030 Windemere Lane,,Burnsville,MN,55300
"March 07, 2009",Terry,,Irish,5221 Bloomington Avenue So,,Minneapolis,MN,55417
,Dorothy,,Isaacson,2747-112th Ave. NW,,Coon Rapids,MN,55433
,Kathryn,,Isacksen,783 E. Nevada Avenue,,St. Paul,MN,55106
"March 20, 2007",Kathryn,A.,Jaaffe,12431 Brighton Square,,New Brighton,MN,55112
"June 14, 2005",Jen,,Jackson,"School of Music, Room 100 FergH",2106 4th Street SE,Minneapolis,MN,55455
"September 20, 2001",Mary Ann,,Jackson,2114 Roblyn Avenue,,St. Paul,MN,55104
"April 21, 2007",Peter,,Jackson,2707 Woods Trail North,,Burnsville,MN,55356
"July 27, 2004",Joen,,Jacobsen,25695 Park Lane,,Excelsior,MN,55331
,Julie,,Jacobsma,McGregor Public School,208 Chestnut Street,Cloquet,MN,55720
"August 05, 2004",Ardis,,Jacobson,73 Arthur Ave. SE,,Minneapolis,MN,55414
,Barbara,,Jacobson,3950 County Road 5 N.W.,,Annandale,MN,55302
"August 17, 2003",Lois,,Jacobson,12453 Olive St NW,,Coon Rapids,MN,55448
"August 17, 2003",Michael,,Jacobson,PO Box 54,,Paynesville,MN,56262
,Sonia,,Jacobson,2466 Virginia Circle,,Roseville,MN,55113
"January 11, 2004",Sheri,E.,Jaffurs,3389 Fox Woods Ct.,,West Bloomfield,MI,48324
,Elaine,L.,Jahnke,155 Gleason Lake Road,Apt 206,Wayzata,MN,55391
"March 23, 2005",Robert,,Jamieson,1315 June Ave. So.,,Golden Valley,MN,55416
,Dennis,,Janick,2001 Eagle Drive,,Buffalo,MN,55313
,Ross,,Janke,2228 Mayfair Road,,Golden Valley,MN,55427
"August 31, 2001",Jaime,,Jedlicka,1845 E. Franklin Avenue,,Minneapolis,MN,55404
"November 02, 2003",Judy,,Jensen,4570 Churchill Street,,Shoreview,MN,55126
,Laura,,Jensen,3640 Wooddale Ave. S #112,,Minneapolis,MN,55416
"January 18, 2005",LeRoy,,Jensen,"400 Groveland Ave., #214 ",,Minneapolis,MN,55403
,Kenneth,D.,Jenson,2970 - 120th Avenue N.W.,,Coon Rapids,MN,55433
"August 08, 2006",Sylvia,,Johanneson,1756 Scheffer Avenue,,St. Paul,MN,55116
"March 26, 2007",A. Joyce,,Johnson,6831 7th Street NE,,Fridley,MN,55432
"January 09, 2006",Barb,,Johnson,4046 Adair Avenue N.,,Robbinsdale,MN,55422
"September 20, 2001",Birdeen,,Johnson,"6450 York Avenue, #515",,Edina,MN,55435
"August 17, 2003",Brent,,Johnson,4234 Xerxes Avenue N.,,Minneapolis,MN,55412
,Brent,,Johnson,5800 Fairfax Avenue,,Edina,MN,55424
,Butch,,Johnson,5750 Shaky Oak Road,,Minnetonka,MN,55343
,Eric,,Johnson,15576 Sweetwater Circle,,Eden Prairie,MN,55347
"August 17, 2003",Erik,,Johnson,26465 Golden Court,,Wyoming,MN,55092
"March 20, 2007",Georgiana,S.,Johnson,1563 18th Avenue NW,,St. Paul,MN,55112
"July 27, 2004",Howard,,Johnson,"4300 W. River Pkwy, #307",,Minneapolis,MN,55406
"March 14, 2003",Janet,,Johnson,9020 Old Cedar Ave S.,,Bloomington,MN,55425
"September 29, 2006",Jerri,,Johnson,3638 Xerxes Ave N,,Minneapolis,MN,55412
"August 17, 2003",Jill,,Johnson,7002 California Ave SW,,Seattle,WA,98136
,Joel,,Johnson,5811 Hobe Lane,,White Bear Lake,MN,55110
,Kerry,,Johnson,1909 S. Jefferson Avenue,,Sioux Falls,SD,57105
"January 18, 2005",Klara,,Johnson,1225 Lasalle Ave. #1408,,Minneapolis,MN,55403
"August 12, 2003",Kristin,,Johnson,17073 68th Avenue N,,Maple Grove,MN,55311
,Margaret,,Johnson,2846 Zarthan Avenue South,,St. Louis Park,MN,55416
"November 04, 2004",Marvin,,Johnson,6325 County Road 6,,Independence,MN,55359
"September 12, 2005",Marybelle,,Johnson,4870 Babcock Trail #334,,Inver Grove Heights,MN,55077
"September 12, 2005",Matthew,,Johnson,2139 109th Lane NW,,Coon Rapids,MN,55433
"July 27, 2004",Orville,,Johnson,4444 Independence Ave. N.,,New Hope,MN,55428
"August 17, 2003",Patricia,,Johnson,8835 11th Avenue S.,,Bloomington,MN,55420
"January 11, 2004",Penny,,Johnson,16417 Harvard Dr,,Lakeville,MN,55044
,Rev. Keith,,Johnson,3400 Park Avenue South,,Minneapolis,MN,55407
,Richard,D.,Johnson,2312 Gordon Avenue,,St. Paul,MN,55108
"August 31, 2001",Rick,,Johnson,4800 Wells Fargo Center,90 South Seventh Street,Minneapolis,MN,55402
"January 18, 2005",Ruby,,Johnson,"7500 York Ave. S., #406A",,Edina,MN,55435
"January 09, 2006",Brooks,,Johnson-Heimer,519 E. River Street,,Monticello,MN,55362
,Julie,,Johnston,2910 Franklin Avenue East,,Minneapolis,MN,55406
"September 20, 2001",Steve,,Johnston,3800 W. 103rd Street,,Bloomington,MN,55431
"August 17, 2003",Charles,,Jorenby,14688 Rosewood Rd NW,,Prior Lake,MN,55372
"January 09, 2006",Destiny,,Jorgensen,4711 Aldrich Avenue N.,,Minneapolis,MN,55430
,Leola,,Josephson,10501 Cedar Lake Road,,Minnetonka,MN,55305
"June 14, 2005",Bernie,,Joyce,1880 Gold Trail,,Eagan,MN,55122
,Eugene,,Junker,1250 Hesse Farm Road,,Chaska,MN,55318
"March 07, 2009",Sara,,Junker,1605 6th Avenue apt. 212,,Alexandria,MN,56308
,Colleen,,Kaibel,13913 Fawn Ridge Way,,Apple Valley,MN,55124
,Jan,,Kair,14198 Plymouth Avenue,,Burnsville,MN,55337-5717
,Eoina,,Kala,5982 Bartlett Blvd.,,Mound,MN,55364
"August 31, 2001",Paul,,Kaminski,4000 US Bank Place,601 Second Avenue South,Minneapolis,MN,55402
,Katherine,,Kampa,5920 Hemlock Lane North,,Plymouth,MN,55442
"September 17, 2004",Mark,,Kappus,3305 Huntington Avenue,,St. Louis Park,MN,55416
"August 31, 2001",Sami,,Karam,1990 E. 3rd Street,,St. Paul,MN,55119
,Lenore Whitney,,Karash,29175 Goldenrod Dr. NW,,Isanti,MN,55040-8012
"March 23, 2005",Robert,,Karlen,6021 Zenith Avenue S.,,Edina,MN,55410
,Sue,,Karlen,955 Burton Street,,Red Wing,MN,55066
"June 05, 2008",Paul,,Karlson,5021 42nd Avenue South,,Minneapolis,MN,55417
,Roxanne,,Karney,2161 Temple Ct,,St. Paul,MN,55104
,Stephen,,Kath,780 Cottage Avenue West,,St. Paul,MN,55117
"March 23, 2005",Robert,,Kaufman,5129 Meadow Ridge,,Edina,MN,55439
"August 31, 2001",Rick,,Kelber,4800 Wells Fargo Center,90 South Seventh Street,Minneapolis,MN,55402
"August 31, 2001",Tom,,Keller III,4800 Wells Fargo Center,90 South Seventh Street,Minneapolis,MN,55402
,Linda,,Kelsey,WCCO TV,90 S. 11th Street,Minneapolis,MN,55403
,Carolyn,,Kennedy,13633 Hidden Creek Drive,,Andover,MN,55304
"June 14, 2005",Jim,,Kennedy,524 Victoria Avenue,,Venice,CA,90291
"November 04, 2004",Natalie,,Kennedy,300 12th Avenue NE  #1,,Minneapolis,MN,55413
"June 14, 2005",Samantha,,Kennedy,586 Lincoln Avenue  #5,,St. Paul,MN,55102
"May 01, 2007",Marie,,Kenny,716 Ashley Drive,,Chaska,MN,55318
"August 30, 2002",Alice,,Kerr,1405 Wilshire Wds Ln NE,,Rochester,MN,55906
"April 26, 2006",Catherine,,Keste,14014 Windsor Road,,Minnetonka,MN,55345
,Tony,,Kienitz,20652 Hartford Way,,Lakeville,MN,55044
,Jin,,Kim,1353 Easter Kabe,,St. Paul,MN,55123-1734
,Young-Nam,,Kim,3737 Multifoods Tower,33 S. Sixth Street,Minneapolis,MN,55402
"September 17, 2004",Diane,,Kirking,4212 Scott Terrace,,Edina,MN,55416
"March 07, 2009",Ada,,Kirscher,758 Sextant Avenue West,,St. Paul,MN,55113
,Ruth,,Kjome,210 W. Grant St.,#427,Minneapolis,MN,55403
,Kyle,,Klatt,11825 - 50th Street North,,Lake Elmo,MN,55042
"March 30, 2001",Bob,,Klecker,3653 Widgeon Way,,Eagan,MN,55123
"June 14, 2005",Joanne,,Klein,1196 122nd Lane NE,,Blaine,MN,55434
,Darlene,,Klemenhagen,5216 Shoreview Avenue South,,Minneapolis,MN,55417
,Rebecca,,Klett,551 Frontenac Place,,St. Paul,MN,55104
"January 18, 2005",Fran,,Klette,2523 Parkway Avenue S,# 608,Minneapolis,MN,55404
,Joanie,,Kline,10090 Saratoga Way,,Maple Grove,MN,55369
,Marty,,Kline,4926 West Uplandcrest,,Columbia Heights,MN,55421
,Shelley,,Kline,5625 - 37th Avenue South,,Minneapolis,MN,55417
"November 02, 2003",Peg,,Klingel,3267 88th NE,,Monticello,MN,55362
"October 24, 2001",Todd,,Klingel,Minneapolis Downtown Council,81 South 9th Street Suite 260,Minneapolis,MN,55402
"June 14, 2005",Lorena,,Klinnert,300 Marshall Avenue  #3,,St. Paul,MN,55102
"January 18, 2005",Sara,,Klomp,525 - 20th Ave. South,,Minneapolis,MN,55454
"August 31, 2007",Emily,,Klotz,240 Grandview Ave.W.#209,,Roseville,MN,55113
"August 17, 2003",Lisa,,Knafia,6615 Elliot Avenue,,Richfield,MN,55423
"January 11, 2004",Lillian,,Knafla,8838 First Ave S,,Minneapolis,MN,55420
"August 31, 2001",Morris,,Knopf,4000 US Bank Place,601 Second Avenue South,Minneapolis,MN,55402
"August 17, 2003",Carrie,,Knott,21781 Cty Rd 9,,Winsted,MN,55395
,Howard,,Knutson,468 Meadowood Lane,,Burnsville,MN,55337-6841
"January 18, 2005",Myra,,Knutson,4213 Morningside Road,,Minneapolis,MN,55416
"January 19, 2005",Sherry,,Knutt,10184 Grand Isle Place,,Woodbury,MN,55129
"June 14, 2005",Kristen,,Koester,761 Como Avenue  #101,,St. Paul,MN,55103
"February 19, 2004",Pat,,Kohn,1341 Hillside Street,,Hastings,MN,55033
"February 08, 2007",Lila,,Koivisto,3936 8th Avenue North,,Anoka,MN,55303
,Jean,,Koleske,11009 Glenwilding Lane,,Bloomington,MN,55420
"October 24, 2001",Jill,,Konrath,2227 Foxtail Court,,White Bear Lake,MN,55110
"March 30, 2001",Susan,,Koob,10533 Oregon Circle,,Bloomington,MN,55438
"March 19, 2003",John,,Kopchik,767 Osceola Ave,,St. Paul,MN,55105
"February 20, 2004",Lori,,Koppelman,3809 Adair Avenue N.,,Crystal,MN,55422
"January 28, 2002",Paula,,Kosek,3535 France Ave. N.,,Robbinsdale,MN,55422
"August 31, 2001",Bill,,Koster,4800 Wells Fargo Center,90 South Seventh Street,Minneapolis,MN,55402
"March 07, 2009",Cordelia,,Kotek,478 12th Avenue NW,,New Brighton,MN,55112
,Jean,,Kramer,1104 7th Avenue S.,,Moorhead ,MN,56563
,Joyce,,Kraulik,4173 Nancy Place,,Shoreview,MN,55126
"August 17, 2003",Patricia,,Kreuziger,6705 Cheyenne Tr,,Edina,MN,55439
"September 16, 2004",Cleo,,Kriesel,6141 Arctic Way,,Edina,MN,55436
,Mary,,Krizan,1339 W. 18th Street,,Hastings,MN,55033
,Gloria,,Kroeger,2568-115th Ave. NW,,Coon Rapids,MN,55433
"November 02, 2003",Kim,,Kroetsch,Linwood At School,1023 Osceola Ave,St. Paul,MN,55105
"January 18, 2005",Janet,,Krofta,3320 Louisiana Ave. S. #508,,St. Louis Park,MN,55426
"January 18, 2005",Gertrude,,Krook,2287 Palmer Drive #316,,St. Paul,MN,55112
"August 04, 2004",Joyce,,Krook,4732 Bloomington Ave. S.,,Minneapolis,MN,55407
,Rob,K,Kruegel,4011 Monterey Avenue,,Minneapolis,MN,55416
,Susan Kelly,,Krueger,1175 Willowbrook Drive,,Wayzata,MN,55391-9524
"August 31, 2001",Steve,,Kruger,4000 US Bank Place,601 Second Avenue South,Minneapolis,MN,55402
,Dale,,Kruse,213 - 10th Avenue North,,Hopkins,MN,55343
,Kathryn,,Krusmark,645 Ridgeview Dr.,,Wayzata,MN,55391
,Gary,,Kubat,ISD 191 - 100 River Ridge Court,,Burnsville,MN,55337
"November 04, 2004",Carol,,Kube,6866 Blackhawk Trail,,Inver Grove Heights,MN,55077
,Wendy,,Kuepper,410 Groveland Avenue,#1705,Minneapolis,MN,55403
,Marie,,Kuglin,6920 Plymouth Avenue North,,Minneapolis,Mn,55427
,Donald,,Kukowski,112138 Haering Court,,Chaska,MN,55318
"August 31, 2001",Kristofer,,Kulsrud,276 Elm Drive,,Apple Valley,MN,55124-9399
"January 09, 2006",Tom,,Kunsisto,4020 51st Avenue N.,,Brooklyn Center,MN,55429
"July 28, 2004",Marilyn,,Kuntz,3424 W. 87th Street,,Bloomington,MN,55431
"August 08, 2006",Jodi,,Kyllonen,2040 Loren Road,,Roseville,MN,55113
,Kari,,Lace,3310 - 139th Avenue N.W.,,Andover,MN,55304
"August 31, 2001",Joe,,LaFave,4000 US Bank Place,601 Second Avenue South,Minneapolis,MN,55402
"March 15, 2004",Candy,,LaFontaine,17964 Linwood Court,,Eden Prairie,MN,55347
,Jon,,Lahann,4462 Arden View Court,,Arden Hills,MN,55112
,Deborah,,Lamb,680 Orchard Park Road,,Orono,MN,55356-9547
"February 20, 2004",Rick,,Lamb,2505 E. Lake of Isles,,Minneapolis,MN,55405
"January 18, 2005",Ardelle,,Lande,5015 - 35th Ave. S. #701,,Minneaolis,MN,55417
,Nancy,,Lange,17404 Bridgewater Circle,,Minnetonka,MN,55345
,Joshua,T.,Langlie,429 Idaho Avenue W.,Apt 23,St. Paul,MN,55117
"January 09, 2006",Marissa,,Langseth,7025 88th Street NE,,Brooklyn Park,MM,55445
,Gail,,Langston,1189 Bellows Street,,West St. Paul,MN,55118
"August 17, 2003",Emily,,Lanik Parr,904 W. Franklin Avenue,Apt. 22,Minneapolis,MN,55405
,Mary,,Lapham,314 Long Lake Court,,Shoreview,MN,55126
"January 18, 2005",Dorothy,,Larsen,6001 Morgan Ave. South,,Minneapolis,MN,55419
"September 29, 2006",Kevin,,Larsen,3144 Oakdale Ave S,,Minneapolis,MN,55407
"August 02, 2004",Sheryl,,Larsen,6100 Lee Avenue No.,,Brooklyn Center,MN,55429
"February 19, 2004",Alan,,Larson,1414 9th Ave. S. #12,,Grand Forks,ND,58201
"January 19, 2005",Dee,,Larson,134 Bank Street SE,,Minneapolis,MN,55414
"November 05, 2003",Dick,,Larson,608 22nd Ave,,Minneapolis,MN,55418
"January 18, 2005",Elden,,Larson,19 South 1st St. #B406,,Minneapolis,MN,55401
"January 28, 2002",Gloria,,Larson,8735 Stevens Ave. S.,,Bloomington,MN,55420
"March 14, 2007",Levonne,L.,Larson,2210 Midland View Court N,,Roseville,MN,55113
,Lloyd,,Larson,12976 - 84th Avenue North,,Maple Grove,MN,55369
"January 28, 2002",Lynn,,Larson,13230 45th Ave. N.,,Plymouth,MN,55442
,Mary,,Larson,968 Germain Court,,St. Paul,MN,55106-2958
,Ronald,,Larson,710 Cherrywood Circle,,Waconia,MN,55387
"July 27, 2004",Rose,,Larson,461 Dudley Avenue,,Shoreview,MN,55126
,Teresa,,Larson,1376 Park Drive,,Mound,MN,55364-9608
"November 02, 2003",Tom,,Larson,832 Utah Avenue,,Golden Valley,MN,55426
,John,,Laskey,1375 80th Street East,,Inver Grove Heights,MN,55077
"January 18, 2005",Helen,,Lattu,7500 York Ave. South #927,,Edina,MN,55435
"March 26, 2007",Rachelle,T.,Lausche,2951 Linden Drive,,New Brighton,MN,55112
"August 30, 2002",Rex,,LaVang,Minnesota Public Radio,45 E. 7th St,St. Paul,MN,55101
,Jack,,Lavold,6859 Ideal Ave. So.,,Cottage Grove,MN,55016
"January 11, 2004",Kris,,Layton,5515 Queen Ave S,,Minneapolis,MN,55410
,Steve,,Lea,1087 - 140th Lane N.W.,,Andover,MN,55304
,Martha,,Leary,13627 Oakland Drive,,Burnsville,MN,55337
,Judy,,Lecher,8481 - 156th Street Court,,Apple Valley,MN,55124
"January 17, 2003",Robert,,Leduc,144 Fairview Ave S.,,St. Paul,MN,55105
"January 17, 2003",Linda,,Lee,11 Knoll Road,,North Oaks,MN,55127
"August 31, 2001",Marie,,Lee,1614 E. 24th St.,,Minneapolis,MN,55404
"August 31, 2001",Nancy,,Lee,1460 Scheffer Ave,,St. Paul,MN,55116
,Rita,,Lee,4925 W. 96th Street,,Bloomington,MN,55437
"October 24, 2001",Sue,,Lee,5350 US Bank Place,601 2nd Avenue South,Minneapolis,MN,55402
"January 18, 2005",Alice,,Leese,1126 6th Street NE #1,,Minneapolis,MN,55413
,Mike,,Legvold,711 Union St.,,Northfield,MN,55057
,Janice,,Lehmkuhl,510 Circle Lane,PO Box 965,Arlington,MN,55307-9655
,Li,,Lei,532 Jessamine Avenue E.,,St. Paul,MN,55101
,Brad,,Lemberg,332 Minnesota Street  Ste W2200,,St. Paul,MN,55101
"July 28, 2004",D.,,Leonard,2721 Alabama Avenue,,St. Louis Park,MN,55416
,Laura,,Leonberger,4779 Galaxie Avenue,,Eagan,MN,55122-2600
"August 25, 2005",Jami,,Lercher,104 Palomino Lane,,Lino Lakes,MN,55014
"August 30, 2002",Sharon,,Levine,18758 Clear View Lane,,Minnetonka,MN,55345
"August 17, 2003",Stacey,,Lewandowski,POB 112,,Watertown,MN,55338
"January 09, 2006",Justin,,Lewis,1587 Four Oaks Road,,Eagan,MN,55121
"August 30, 2002",Mary,D.,Lewis,1440 Bandolpa Ave,Apt #207,St. Paul,MN,55105-2562
"May 07, 2007",Karen,,Libra,480 Bayview Drive,,Roseville,MN,55113
"October 24, 2001",Tom,,Lieberman,800 LaSalle,Suite 1750,Minneapolis,MN,55402
,Thor,,Lien,13057 Penn Avenue South,,Burnsville,MN,55337
"June 14, 2005",Toby,,Lien,5809 Arthur Street NE,,Fridley,MN,55432
"January 11, 2004",Mary,,Lierman,17516 Frondell Ct,,Eden Prairie,MN,55347
,Naomi,,Lifejoy,5447 Babcock Trail # 204,,Inver Grove Heights,MN,55077
"September 20, 2004",Steve,,Lilienthal,4309 44th Avenue South,,Minneapolis,MN,55406
"November 04, 2004",Clare,,Lillis,50609 Shorewood Circle,,Rush City,MN,55069
"February 08, 2007",Emma,,Lindahl,11232 Mount Curve Rd.,,Eden Prairie,MN,55347
,Kathyn,,Lindblad,8090 Urbandale Lane,,Maple Grove,MN,55311
"September 09, 2008",Katie,,Lindenfelse,4108 22nd Avenue South,,Minneapolis,MN,55407
,Elaine,,Linder,6820 Auto Club Road,,Bloomington,MN,55438
"August 08, 2006",Judi,,Linder,4240 19th Avenue So.,,Minneapolis,MN,55407
,Mark Peter,,Lindquist,Urban Ventures Foundation,3041 Fourth Avenue South,Minneapolis,MN,55408
,Susan,,Lindvall,15137 Crestview Lane,,Minnetonka,MN,55345
"November 05, 2002",Hinda,,Litman,2 Fletcher Pl,,Hopkins,MN,55305
,Dr. Chun-Jo (C.J.),,Liu,2101 Newton Avenue South,No. 4,Minneapolis,MN,55405
"August 17, 2003",Keith,,Liuzzi,2227 Ulysses St. NE,,Minneapolis,MN,55418
,David,,Livingston,2621 Cohansey Street,,Roseville,MN,55113-3521
"November 04, 2004",John,,Livingston,121 Washington Ave. S.#1301,,Minneapolis,MN,55401
"August 17, 2003",Tyler,,Livingston,2354 Matilda St.,,Roseville,MN,55113
,Marla,,Locken,7020 Washburn Avenue S,,Richfield,MN,55423
"August 17, 2003",Brent,,Lofgren,712 Fountain Street,,Ann Arbor,MI,48103
,Suzanne,E.,Lofquist,4274 Harbor Dr,,Nisswa,MN,56468
,Evelyn,,Lohr,6240 Hummingbird Road,,Excelsior,MN,55331
"January 11, 2004",Mary,,Lokensgard,3932 Stonebridge Dr. N,,Eagan,MN,55123
,Ardell,,Lommer,21139 Co. Hwy. 6,,Wabasso,MN,56293
"June 14, 2005",Justin,,London,Carleton College Music Department,300 North College Street,Northfield,MN,55057
"January 09, 2006",Mary,,Longfellow,1610 Overlook Road,,St. Paul,MN,55118
,Brenda,,Longmire,15757B 26th Avenue N,,Plymouth,MN,55447
,Allen,P.,Lovejoy,2157 Kings Terrace,,Woodbury,MN,55125
"November 06, 2003",Kasey,,Lowell,"7401 W. 101 St, 210",,Bloomington,MN,55438
"January 18, 2005",Jack,,Lower,3012 Armour Terrace,,Minneapolis,MN,55418
"August 31, 2001",Sophie,,Lu,"4530 W. 38th Street, #202",,St. Louis Park,MN,55416
,Weiming,,Lu,175 East 5th Street,"Galtier Plaza, Suite 750",St. Paul,MN,55101
"August 17, 2003",Nancy,,Lucas,4601 Fairway Hills Dr.,,Eagan,MN,55123
"January 18, 2005",Alice,,Lucke,6501 Woodlake Dr. #414+D1472,,Richfield,MN,55423
,Scott,,Lueck,Hope Evang. Free Church,7910-15th St. No.,Oakdale,MN,55128
,Nancy Hanson,,Lueder,711 E. Belmont Lane,,St. Paul,MN,55117
"August 17, 2003",Sally,,Luehman,341 W. State ST.,,Mauston,WI,53948
"August 17, 2003",Sherrie,,Luetgers,PO Box 46,,Nevis, MN,56467
"November 02, 2003",Ellen Goldberg,,Luger,"Director, General Mills Foundation",PO Box 1113,Minneapolis,MN,55440
"November 05, 2002",Barbara,,Luke,17496 Frondell Ct,,Eden Prairie,MN,55347
"November 04, 2004",Linda,,Lund,2406 Beech Street,,Rosemount,MN,55068
,Danny,,Lundberg,17741 Fairlawn Avenue,,Prior Lake,MN,55372-2810
"August 08, 2006",Jennifer,,Lundblad,3233 Rolling Hills Drive,,Eagan,MN,55121
,John,,Lundgren,27 Oakwood Drive,,New Brighton,MN,55112
,Carol,,Lynse,Office of the President,1520 St. Olaf Avenue,Northfield,MN,55057
,George,,MacCauley,16824 Jackpine Trail,,Lakeville,MN,55044
"January 28, 2002",Bonnie Jean,,Mackay,21 Jessamine Ave. E.,,St. Paul,MN,55117
"August 31, 2001",Jan,,MacNally,1885 127th Lane NW,,Coon Rapids,MN,55448
,Andrea,,Madson,3830 Quaker Lane N,,Plymouth,MN,55441
"October 24, 2001",Eric,,Madson,2800 LaSalle Plaza,800 LaSalle Avenue,Minneapolis,MN,55402
"January 17, 2003",Rev. Susan,,Madson,Christ the Servant Lutheran Church,3686 Centerville Rd,Vadnais Heights,MN,55127
"January 18, 2005",Shirley,,Magnuson,121 Grant Street W. #114,,Minneapolis,MN,55403
"October 24, 2001",Chris,,Mahai,251 1st Av N,Suite 500,Minnneapolis,MN,55401
"September 09, 2008",Jan,,Malecha,14915 Wilds Parkway NW,,Prior Lake,MN,55372
"August 30, 2002",Vivian,,Maleomson,4116 5th Place NW,,Rochester,MN,55901-7509
,Duayne,,Malewicki,8124 Hampshire Avenue North,,Brooklyn Park,MN,55445
"August 31, 2001",Lita,,Malicsi,7415 5th Avenue S,,Richfield,MN,55423
,T.,,Mallak,14118 Westridge Drive,,Eden Prairie,MN,55347
"September 20, 2004",Susan,,Malmquist,14855 Lloyds Drive,,Minnetonka,MN,55345
"October 24, 2001",Pat,,Mandile,2800 LaSalle Plaza,800 LaSalle Avenue,Minneapolis,MN,55402
"September 20, 2001",Jean,,Mans,2456 Crestwood Drive,,North St. Paul,MN,55109
,Karen,,Marano,1404 N. Avon Street,,St. Paul,MN,55117
"February 19, 2004",Kathy,,March,520 West 4th Street,,Hastings,MN,55033
"August 17, 2003",Susan,,Marcinkowski,807 S. 10th ST.,,Montevideo,MN,56265
,Joy,,Marcus,3630 Phillips Parkway,Apt. 604,St. Louis Park,MN,55426-3779
"September 20, 2001",Dee,,Marks,1901 Drew Avenue South,,Minneapolis,MN,55416
"November 02, 2003",Kathryn,,Marsh,15624 Wing Lake Drive,,Minnetonka,MN,55345
"June 14, 2005",Andrea,,Martin,9335 Balsam Fir Avenue North,,Brooklyn Park,MN,55443
,Eric,,Martin,411 - 33rd Street West,,Minneapolis,MN,55408
"June 14, 2005",Jerry,,Martin,7336 Lyndale Avenue South,,Richfield,MN,55423
,Maxine,,Martineau,128 E. Frost Street,,South St. Paul,MN,55075
"November 02, 2003",The,,Massees,19420 McKinley Ct.,,Shorewood,MN,55331
,Jerry,,Massman,4085 Everest Lane No.,,Plymouth,MN,55446
"March 23, 2005",Jonathan,,Mathes,3270 Orchard Avenue No.,,Golden Valley,MN,55422
"October 24, 2001",Pat,,Mathews,220 South Sixth Street,Suite 500,Minneapolis,MN,55402
,Aleda,,Mathiowetz,1940 Rome Avenue,,St. Paul,MN,55116
,William,,Mathis,Hennepin Avenue United Methodist Ch,511 Groveland,Minneapolis,MN,55403
,Christine,,Matimba,1624 E. River Terrace,,Minneapolis,MN,55414
,Amy,T.,Matsumoto,4215 Stinson Blvd.,,Minneapolis,MN,55421
"November 05, 2001",Kristen,,Mattick,2140 49th St. SE,,St. Cloud,MN,56304
"August 02, 2004",Maxine,,Mattison,5484 Nolan Circle North,,Oak Park Heights,MN,55082
"January 18, 2005",Anita,,Mattson,433 - 7th St. S. #2028,,Minneapolis,MN,55415
,Lee,,Mauk,3243 E. Calhoun Pkwy,,Minneapolis,MN,55408
"August 17, 2003",Leah,,Maves,5718 Cty Rod Q,,Amherst,WI,55406
"August 31, 2001",Ann,,Mavis,6500 Edgewood,,Rockford,MN,55373
"January 28, 2002",Paula,,Mazzacano,3800 Noble Ave. N.,,Robbinsdale,MN,55422
,Larry,E.,McCaghy,9151 Glocca Morra Circle,,Lakeville,MN,55044
"November 02, 2003",Mike,,McCann,15416 Village Woods Drive,,Eden Prairie,MN,55347
"February 20, 2004",Mary,,McCormick,5221 Zenith Avenue,,Minneapolis,MN,55410
,Jeffrey,,McCourt,11725 41st Ave N,,Minneapolis,MN,55441
"August 30, 2002",Karla,,McCray,2316 Oliver Ave,,Minneapolis,MN,55406
"February 20, 2004",Vic,,McGill,1414 Laurel Ave. #218,,Minneapolis,MN,55403
"January 09, 2006",Natalie,,McGrady,17505 49th Avenue N.,,Plymouth,MN,55446
,Judith,,McGuire,4048 Zenith Avenue South,,Minneapolis,MN,55410
,Mary Ann,,McGuire,5017 Sheridan Ave. So.,,Minneapolis,MN,55410
"February 28, 2006",Suzanne,,McKeever,5918 Ridgewood Road,,Mound,MN,55364
,Paul,,McKenzie,421 Upton Avenue South,,Minneapolis,MN,55405
,Patricia,,McKernon,4340 Sussex Road,,Golden Valley,MN,55416
,Elizabeth,,McKie,13140 Hallmark Court,,Apple Valley,MN,55124
"August 17, 2003",Elaine,,McLane,7952 Lad Pky,,Brooklyn Park,MN,55443
,Jerry,,McMullen,2833 - 32nd Avenue South,,Minneapolis,MN,55406
"November 02, 2003",The,,McPhersons,14702 Boulder Pointe Road,,Eden Prairie,MN,55347
"September 17, 2004",Dorothy,,McQuay,1800 E. 5th Street,,St. Paul,MN,55106
,Marianne,,McVicar,20929 Independence Ave,,Lakeville,MN,55044
,Frank,,Medved,171 Windsor Court,,New Brighton,MN,55112
"November 02, 2003",Ellen,,Meier,1110 Boone Ave. N.,,Golden Valley,MN,55427
"March 30, 2001",Ardis,,Melbie,6332 Quail Avenue N,,Brooklyn Center,MN,55429
"January 18, 2005",Ada,,Melby,"2545 Portland Ave. S., #108",,Minneapolis,MN,55404
"September 20, 2001",Christina,,Melloh,2642 Irving Avenue South,,Minneapolis,MN,55408
"August 30, 2002",Gaye,,Melton,1000 Nicollet Mall,TPS-3080,Minneapolis,MN,55403
,Susan,,Mencel,2837 39th Avenue South,,Minneapolis,MN,55406-1848
"May 18, 2006",Charlotte,,Menzel,17 Overlook Road,,White Bear Lake,MN,55110
"August 17, 2003",Lynn,,Merhalski,930 Dodd Road ,#930,St. Paul,MN,55118
"November 02, 2003",Dick,,Meyer,1627 North 2nd St,,Mankato,MN,56001
,Sean,Q.,Meyer,186 Charles Avenue,,St. Paul,MN,55103-2029
,Sharon,,Meyer,437 Fourth Avenue East,,Shakopee,MN,55347
"September 09, 2008",Laurie,,Meyers,5215 35th Avenue South,,Minneapolis,MN ,55417
 ,Sandy,,Meyers,10904 Rhode Island Ave. S.,,Bloomington,MN,55438
"January 28, 2002",Joanne,,Micensky,"1500 Park Ave. South, #104",,Minneapolis,MN,55404
"January 18, 2005",Marjorie,,Mickelson,1235 Yale Place #409,,Minneapolis,MN,55403
,John,,Middleton,121 Elm Street,,Mahtomedi,MN,55115
,H. Christine,,Midelfort,1473 Fulham Street,,St. Paul,MN,55108
"January 18, 2005",Jeanette,,Miklethun,1510 - 11th Ave. #607,,Minneapolis,MN,55404
,Rochelle,,Milbrath,"1157 Hague Avenue, #7",,St. Paul,MN,55104
,Carrie,,Miller,6268 - 137th Court,,Apple Valley,MN,55124
"May 01, 2007",Dawna,,Miller,7831 Frontier Trail,,Chanhassen,MN,55343
,James,,Miller,1465 W. 33rd St. #101,,Minneapolis,MN,55408
"August 31, 2001",Jean,,Miller,1069 22nd Avenue SE,,Minneapolis,MN,55414
"November 04, 2004",Lucille,,Miller,2815 East Lake of the Isles,,Minneapolis,MN,55408
,Pam,,Miller,817 Maggie Drive,,Boaz,AL,35957
,Wally Ray,,Miller,Elk River Senior High School,,Elk River,MN,55330
"January 18, 2005",Hazel,,Milne,5250 Vernon Ave. South #302,,Edina,MN,55436
"August 31, 2007",Irene,,Mineoi,769 Como Avenue,,St. Paul,MN,55103
,Kathy,,Mitchell,1314 Easter Lane,,St. Paul,MN,55123-1733
,Patricia,,Mitchell,140 Iris Street,,Mahtomedi,MN,55115
"January 28, 2002",Laurie,,Mlinar,3815 56th Ave. N.,,Brooklyn Center,MN,55429
,Peter,,Moberg,8695 Hastings St NE,,Blaine,MN,55449-4249
"October 24, 2001",LoAnn,,Mockler,400 N. 1st St.,Suite 100,Minneapolis,MN,55401
,Patricia,,Moe,7357 Bren Lane,,Eden Prairie,MN,55346
"November 05, 2001",Bonnie,,Moecid,17712 38th Avenue N.,,Plymouth,MN,55446
"August 17, 2003",Andrew,,Moen,320 W. 5th Street,,Blue Earth,MN,56013
"January 09, 2006",Laura Ann,,Moeun,9024 Woodhall Crossing N,,Brooklyn Park,MN,55443
"January 18, 2005",Agnes,,Mohrbacher,1823 Toledo Ave. North,,Golden Valley,MN,55422
"August 30, 2002",Carol,,Mollner,1808 Princeton Avenue,,St. Paul,MN,55105
"February 19, 2004",Mary,,Monge,11682 99th Place N.,,Maple Grove,MN,55369
"March 07, 2009",Beverly,,Monnens,520 3rd Avenue NE,,Minneapolis,MN,55413
"October 24, 2001",Travis,,Monson,580 Snelling Ave S. #5,,St. Paul,MN,55116
,Meredith,,Montgomery,1728 Hague Avenue,,St. Paul,MN,55104
"October 24, 2001",Andy,,Morantz,105 South 5th Avenue,Suite 150,Minneapolis,MN,55401
"April 22, 2002",Marti,,Morfitt,9313 Olympia Drive,,Eden Prairie,MN,55347
"January 18, 2005",Jeanne,,Morphew,1045 - 17th Ave. North,,South St. Paul,MN,55075
"January 09, 2006",Megan,,Morrissey,147 W. 48th Street,,Minneapolis,MN,55409
"August 30, 2002",A. Kristine,,Mortensen,4017 York Avenue S,,Minneapolis,MN,55410
,William,C.,Mortensen,4657 South Cedar Lake Road,,Minneapolis,MN,55416
"January 09, 2006",Tasha,,Moskowitz,3431 Vicent Avenue N.,,Minneapolis,MN,55412
"September 29, 2006",Isabelle,,Moulinier,7030 Oliver Ave S,,Richfield,MN,55423
,Miriam,,Moxness,1604 - 66th Avenue N.E.,,Fridley,MN,55432
,Dave,,Mueller,15080 Scenic Drive,,Dayton,MN,55327
,Terry,,Mueller,9308 Yukon Avenue S,,Bloomington,MN,55438
"September 20, 2004",Laura,,Muilenburg,740 Preakness Lane,,Chanhassen,MN,55317
"March 14, 2007",Mary Lou,,Mularie,1900 Rush Lake Trail  #324,,New Brighton,MN,55112
,Patricia,A.,Mullan,4848 Meadow Lane,,Shoreview,MN,55126
"July 28, 2004",Robert,,Mullin,1793 Gramsie Road,,Arden Hills,MN,55112
,Brent,,Munce,5262 Skiba Drive,,Mounds View,MN,55112
,Leonard,,Munson,5804 Willow Lane,,Shoreview,MN,55126
,Sandra,,Munson,13837-85th Place No.,,Maple Grove,MN,55369-9236
,Bridget,,Murphy,1300 West 136th Street,,Burnsville,MN,55337
,Mark,,Murphy,1010 Division Street,,Northfield,MN,55057
,Robert,,Murphy,2499 N. Helen Street,,N. St. Paul,MN,55109
"September 17, 2004",Svea,,Murphy,1831 Portland Avenue,,St. Paul,MN,55104
,Patricia,A.,Murray,4271 Sheridan Avenue South,Apt. 305,Minneapolis,MN,55410
,Thomas,,Mustachio,3010 Hennepin Avenue South,#254,Minneapolis,MN,55408
"August 12, 2003",Rita,,Mustaphi,Katha Dance Theatre,5444 Orchard Ave N,Crystal,MN,55429
,Michael,,Musto,12213 42nd Ave. N.,,Plymouth,MN,55441
,Jill,,Myers,6724 Rosemary Lane,,Edina,MN,55439
"August 17, 2003",Michael,,Nadeau,RR 1 Box 133,,Mazeppa,MN,55956
"January 18, 2005",Constance,,Nasby,4242 Wexford Way,,Eagan,MN,55122
"January 28, 2002",Daniel,,Natrop,851 Van Buren Ave.,,St. Paul,MN,55104-1665
"August 17, 2003",Dylan,,Nau,PO Box 511,,Gibbon,MN,55335
"January 11, 2004",Katherine Kilbane,,Neher,1278 Blair Avenue,,St. Paul,MN,55104
"September 20, 2004",Dick,,Neighbor,7325 W 83rd St.,,Bloomington,MN,55438
"February 02, 0806",Mary,,Neil,604 Carver Bluffs Parkway,,Carver,MN,55315
"August 02, 2004",Jeri,,Nelsen,340 Parkway Court,,Minneapolis,MN,55419
,Alys,,Nelson,8003 June Avenue North,,Brooklyn Park,MN,55443
"August 17, 2003",Carrie,,Nelson,4088 Brookside Avenue,,St. Louis Park,MN,55416
"November 05, 2001",Charles,,Nelson,6018 W. 94th St.,,Bloomington,MN,55438
"August 31, 2001",Dan,,Nelson,4000 US Bank Place,601 Second Avenue South,Minneapolis,MN,55402
"January 18, 2005",Helen,,Nelson,5818 Clinton Ave. South,,Minneapolis,MN,55419
,Karen,,Nelson,632 Harriet Avenue,,St. Paul,MN,55126
,Keith,,Nelson,4 Wildflower Pl,,St. Paul,MN,55127-6221
"August 17, 2003",Kristin,,Nelson,1287 Swift Circle,,Shakopee,MN,55379
"January 18, 2005",L. Marcella,,Nelson,"3663 Park Center Blvd., #302",,St. Louis Park,MN,55416
"November 02, 2003",Lane,,Nelson,9706 Mill Creek Drive,,Eden Prairie,MN,55347
"February 19, 2004",Melinda,,Nelson,9112 Upland Lane,,Maple Grove,MN,55369
"November 05, 2001",Paul,,Nelson,5530 Quinwood Lane N.,,Plymouth,MN,55442
,Robin,,Nelson,3442 41st Avenue S,,Minneapolis,MN,55406
"March 14, 2007",Stephanie,K.,Nelson,13107 Orchard Road,,Minnetonka,MN,55305
"September 20, 2004",Stephen,,Nelson,7500 York Avenue Apt. 135,,Edina,MN,55410
,Susan,,Nelson,15735 - 112th Street N.W.,,South Haven,MN,55382
,Cindy,,Nemeth,407 W. Sextant Ave.,,Roseville,MN,55113
"January 18, 2005",Trudy,,Ness,5241 45th Ave. South,,Minneapolis,MN,55417
,Joann,S.,Newman,14761 Oak Run Lane,,Burnsville,MN,55306
"February 08, 2007",Laura,,Nguyen,6348 Utah Avenue N.,,Brooklyn Park,MN,55428
"March 07, 2009",Pondie Marie,,Nicholson,260 Summit Avenue,,St Paul,Mn,55102
,David,,Nickel,4712 Aldrich Avenue South,,Minneapolis,MN,55409
"August 03, 2004",Jan,,Nicolay,15179 Patricia Court,,Eden Prairie,MN,55346
,John,,Nielsen,6224 Hansen Road,,Edina,MN,55436
"August 17, 2003",Julie,,Nielsen Brown,4055 Queen Avenue N,,Minneapolis,MN,55412
,H.,M.,Nielsen-Eckstein,425 Chanview,No. 117,Chanhassen,MN,55317
"January 20, 2005",Laura,,Niemi,5053 Beard Ave. South,,Minneapolis,MN,55410
"August 31, 2001",Karen,,Nippoldt,"249 99th Avenue NE, #204",,Blaine,MN,55434
,Debby,,Nitz,402 Highland Avenue,,Northfield,MN,55057
,Van,,Nixon,3513 - 19th Avenue South,,Minneapolis,MN,55407
"November 13, 2007",Pat,,Nolby,7960 Hartig Circle,,Spring Lake Park,MN,55432
,Lois,,Nordin,Box 22,,Sandstone,MN,55072
"January 18, 2005",Robert,,Noreen,1370 Camelback Drive,,Eagan,MN,55123
"August 17, 2003",Margaret,,Norine,9307 Rich Rd,,Bloomington,MN,55437
,Joanne,,Normandin,6412 Colfax Avenue North,,Minneapolis,MN,55430
,Jim,,Norquist,3670 Denmark Avenue,,Eagan,MN,55123
"October 24, 2001",Mary,,North Mulier,8140 Lake Elmo Av,,Stillwater,MN,55082
"August 17, 2003",Alisa,,Norvold,16317 Flagstaf Avenue,,Rosemount,MN,55068
,Mary Ann,,Novak,3421 Roosevelt Street N.E.,,Minneapolis,MN,55418
"September 29, 2006",Eleonora,,Novik,3755 Rosewood Lane,,Plymouth,MN,55441
"May 17, 2007",David,,Nyflot,1234 Allen Avenue,,St. Paul,MN,55118
"August 17, 2003",Jeffrey,,Nygren,10313 Zinran Avenue S.,,Bloomington,MN,55438
,Rebecca,,Nystuen,17250 Jade Court,,Lakeville,MN,55044
"August 31, 2001",Jim,,O‚ÄôBrien,4800 Wells Fargo Center,90 South Seventh Street,Minneapolis,MN,55402
"October 24, 2001",Sue,,O‚ÄôDonnell,8297 Mitchell Road,,Eden Prairie,MN,55347
"January 18, 2005",June,,Oakins,17 South 1st Street #A505,,Minneapolis,MN,55401
,Alvina,,O'Brien,480 Grand Hill,,St. Paul,MN,55102
"August 30, 2002",Paul,,O'Brien,7911 60th Avenue N,,New Hope,MN,55428
"November 07, 2005",Maria Mishchenko,,Odermann,336 73rd Way N.,,Brooklyn Park,MN,55445
"January 06, 2003",Joan,,O'Donnell,1516 Vandall St,,Mendota Heights,MN,55118
"January 18, 2005",Mary,,Oelke,5745 Duncan Lane,,Edina,MN,55436
"January 18, 2005",Daphine,,Ofsthun,7200 York Ave. S. #413,,Edina,MN,55435
"November 02, 2003",Melanie,,Oja,"515 Calhoun Place NE, Apt. #204T",,Cambridge,MN,55008
"August 17, 2003",Tricia,,Olan,15803 Griffon Path,,St. Paul,MN,55124
"November 07, 2005",Carole,,Olsen,3820 Pilgrim Lane N.,,Plymouth,MN,55441
"September 18, 2002",Jean,,Olsen,1966 110 Ct. NE,,Blaine,MN,55449
"February 23, 2004",Ann,,Olson,6040 Dallas Lane,,Plymouth,MN,55446
,Cheryl,,Olson,515 Harbor Court,,Shoreview,MN,55126
,Darlene,,Olson,401 Whispering Lane,,Hastings,MN,55033
,Harvey,,Olson,12450 Blanca Ave. W.,,Rosemount,MN,55068
"August 31, 2001",Helen,,Olson,3901 126th Avenue NE,,Blaine,MN,55449
,Jean,,Olson,4526 Bridge Court,,St. Paul,MN,55126
"August 17, 2003",Julie,,Olson,151 2nd Avenue,,Clear Lake,WI,54005
"September 29, 2006",Kevin,,Olson,246 Eagon St,,St Paul,MN,55107
"January 19, 2005",Lance,,Olson,5607 Heather Lane,,Edina,MN,55436
"August 12, 2003",Lori,,Olson,Stillwater Area High School,5701 Stillwater Blvd N,Stillwater,MN,55082
"November 02, 2003",Martene,,Olson,6303 22nd Ave NW - Lower,,Seattle,WA,98107
,Mary,,Olson,2425 Winfield Avenue,,Golden Valley,MN,55422-3441
"August 17, 2003",Melissa,,Olson,4309 11th Avenue,,Minneapolis,MN,55407
"March 30, 2001",Mona,,Olson,8341 Virginia Avenie S,,Bloomington,MN,55438
,Pastor Orville,,Olson,301 County Road 19,,Excelsior,MN,55331
"February 08, 2007",Rhonda,,Olson,5109 Beara Avenue South,,Minneapolis,MN,55410
,Richard,,Olson,710 Mankato Avenue,,Winona,MN,55987
,Roger,,Olson,18100 24th Avenue North,,Plymouth,MN,55447
"August 30, 2002",Sandra,,Olson,4111 Brunswick Ave S,,St. Louis Park,MN,55416
,Thomas,,Olson,1267 Albemarle St,,St. Paul,MN,55117
,Bob,,Onan,PO Box 2349,,Minneapolis,MN,55402
"November 02, 2003",Heidi,,Opitz,2828 Jordan Ave. S. #126,,Minnetonka,MN,55305
,Tom,,Orne,6056 W. Broadway #14,,New Hope,MN,55428
,Janet,,Ose,6824 10th Ave. S.,,Richfield,MN,55423
,Delores,J.,Ostlund,10417 Decatur Avenue South,,Bloomington,MN,55438
"March 14, 2003",John,,O'Sullivan,1480 Xanthus Ln N.,,Plymouth,MN,55447
"September 20, 2004",Stephen,,O'Sullivan,1906 3rd Avenue South,,Minneapolis,MN,55404
"January 19, 2005",Kathy,,Otis,1286 Castle Court,,Golden Valley,MN,55427
,Valerie,,Otten,12697 Riverview Road,,Eden Prairie,MN,55347
"August 17, 2003",Tara,,Overson,4723 La Villa Martina ,Unit D,Marina Del Rev,CA,90292
"January 19, 2005",Mary Grant,,Page,1260 3rd Ave.,,Windom,MN,56101
,Mrs. Beatrice,,Palmer,"5601 Dewey Hills Road, #104",,Minneapolis,MN,55439
"August 05, 2004",Ruth,,Palmer,9810 Drew Ave. S. #201,,Bloomington,MN,55431
"November 04, 2004",Bonnie,,Palmquist,4422 Wentworth Ave.,,Minneapolis,MN,55419
"January 28, 2002",Edith,,Pang,3505 Zane Ave. N.,,Crystal,MN,55422
"August 08, 2006",Becky,,Pansch,629 Hillwood Court,,St. Paul,MN,55119
"January 19, 2005",Dorothy,,Panzer,6925 - 13th Ave. South,,Richfield,MN,55423
,F.,J.,Pappas,1791 Hague Avenue,,St. Paul,MN,55104-6028
"June 14, 2005",Marielena,,Parris,5477 Eoodland Road,,Minnetonka,MN,55345
,Charles,,Parsons,1650 Weston Lane No.,,Plymouth,MN,55447
"March 30, 2001",Jerry,,Patiuk,3065 Lydia Ct.,,Roseville,MN,55113
"July 27, 2004",Fred,,Paul,8186 Hill Trail North,,Lake Elmo,MN,55042
,Elizabeth,,Pauly,2900 Hayes Street N.E.,,Minneapolis,MN,55418
"February 23, 2004",Meg,,Payne-Nelson,4612 14th Avenue S.,,Minneapolis,MN,55407
,Diane,,Pearson,1091 Southview Dr.,,Hastings,MN,55033
"January 28, 2002",Katherine,,Pearson,3532 34th Aven. So.,,Minneapolis,MN,55406
"March 26, 2007",Leanne,R.,Pearson,1574 Stephanie Circle,,Eagan,MN,55121
"August 17, 2003",Jonathan,,Pederson,7029 Lanham Lane,,Edina,MN,55439
"August 17, 2003",Kathryn,,Pederson,4767 Karen Pl.,,St. Paul,MN,55110
,Roger,,Pederson,P.O. Box 448,,Starbuck,MN,56381
,Gloria,,Peluso,3010 12th Street NW,,New Brighton,MN,55112
"February 19, 2004",Tanya,,Peplinski,14945 95th Avenue N.,,Maple Grove,MN,55369
"August 03, 2004",Margaret,,Person,9280 Black Oaks Ct. No.,,Maple Grove,MN,55311
,Joan,,Peters,23170 Fontana St. NE,,Stacy,MN,55079
"August 03, 2004",Jane,,Peterson,215 Sixth St. P.O. Box 546,,Gaylord,MN,55334
"November 05, 2001",Julia,,Peterson,220 Holly Ln,,Plymouth,MN,55447
"January 19, 2005",Kari,,Peterson,2200 Indiana Avenue N.,,Golden Valley,MN,55422
,Lillian,,Peterson,6016 - 11th Avenue South,,Minneapolis,MN,55417
,Marge,,Peterson,440 Bohlken Drive,,Hastings,MN,55033
,Randy,,Peterson,1015 - 28th Avenue N.E.,,Minneapolis,MN,55418
"September 18, 2002",Russell,,Peterson,3124 Portland Ave S.,,Minneapolis,MN,55407
"August 17, 2003",Elizabeth,,Petit,725 E. 51st St. ,,Minneapolis,MN,55417
"August 17, 2003",Paul,,Petrasek,1343 75th Avenue NE,,Fridley,MN,55432
"August 17, 2003",Kristine,,Pettersen,1017 Friar Lane,,Madison,WI,53711
"August 17, 2003",Cherish,,Pham,4238 Adair Avenue N.,,Crystal,MN,55422
,James,,Phillips,9408 Frederick Avenue,,St. Louis Park,MN,55426
,Shawn,,Phillips,11100 Utah Ave.,,Champlin,MN,55316
,Kris,,Pichelamn,2800 Acadia Court,,Burnsville,MN,55337
"November 04, 2004",Gloria,,Pitschka,4401 Woodbine Lane,,Brooklyn Center,MN,55429
,Joanne,,Ploetz,P.O.Box 158,,Rush City,MN,55069
,Carl,,Polnaszek,3240 48th Avenue South,,Minneapolis,MN,55406
"January 19, 2005",Betty Jean,,Pomeroy,1760 Shorewood Curve,,Roseville,MN,55113
"August 31, 2001",Steve,,Ponto,8769 201st Avenue NW,,Elk River,MN,55330
"January 19, 2005",Elsie,,Porianda,3744 Cleveland Ave. N. Apt.230,,Arden Hills,MN,55112
"November 04, 2004",Jan,,Porten,3706 Humboldt North,,Minneapolis,MN,55412
,Emily,,Porter,1452 Windemere Dr. NE,,Fridley,MN,55421
"January 09, 2006",Mary,,Portillo,11319 Windrow Drive,,Eden Prairie,MN,55344
"August 30, 2002",Cathy Richlovsky,,Pottebaum,9973 Applewood Cir,,Eden Prairie,MN,55347
,Lowell (Rick),,Prescott,3300 Bloomington Avenue South,,Minneapolis,MN,55407-2215
"March 14, 2003",Dorothy,,Prosch,163 Wayzata Blvd W.  Apt  204,,Wayzata,MN,55391
"March 14, 2007",Margaret,,Psyhogios,1251 Brighton Square,,New Brighton,MN,55112
,William,,Puckett,5029 Aldrich Avenue South,,Minneapolis,MN,55419
"September 20, 2001",Nancy,,Pugh,1217 Selby Avenue,,St. Paul,MN,55104
"March 30, 2001",Vladimir,,Pujic,11873 Riverview Rd,,Eden Prairie,MN,55347
,Terry,,Quandt,12 Tamarisk Road,,Dellwood,MN,55110-1228
"August 30, 2005",Michelle,,Quick,11335 48th Avenue North,,Plymouth,MN,55442
,Kathy,,Radtke,10781 Hopkins Circle,,Bloomington,MN,55420
,Vanessa,,Ramos,Hamline University,1536 Hewitt Avenue,St. Paul,MN,55104
"November 02, 2003",Marilyn,,Rateike,5504 Mayview Road,,Minnetonka,MN,55345
"November 02, 2003",Chris,,Ratsch,5352 Beachside Dr.,,Minnetonka,MN,55343
,Linda,S.,Rawitsch,1724 Tioga Blvd.,,New Brighton,MN,55112
"March 14, 2003",Kim,,Reaman,1823 Fairway Drive,,Hudson,WI,54016
,Delores,,Rebertus,13584 Carmody Drive,,Eden Prairie,MN,55347
,Marlys,,Rechkemmer,308 Arthur Street,,Hopkins,MN,55343-2011
,Virginia,,Redman,7063 Robinwood Trail,,St. Paul,MN,55125-2721
"January 20, 2003",Ruth,,Reetz,40 Norman Ridge Dr,,Bloomington,MN,55437
,Mary Hanegraaf,,Reeve,5600 41st Avenue S,,Minneapolis,MN,55417
,Janette Larson,,Reeves,227 16th Avenue SW,,Rochester,MN,55902-1968
"February 28, 2006",Rita,,Reinecker,8644 2nd Avenue So.,,Bloomington,MN,55420
"August 05, 2004",Hazel,,Reinhardt,5116 Abercrombie Drive,,Edina,MN,55439
,Laura,,Reitz,6224 Hamilton Street,#1,Minneapolis,MN,55416
"October 24, 2001",Marcie,,Rendon,4241 27th Avenue South,,Minneapolis,MN,55406
"November 05, 2001",Diana,,Renk,966 Island Lake Avenue,,Shoreview,MN,55126
,Dave,,Reschetz,4755 Lorinda Dr.,,St. Paul,MN,55126-5841
"January 28, 2002",Bonnie,,Resnick,2251 Copperfield Dr.,,Mendota Heights,MN,55120-1906
"June 14, 2005",Michael,,Reszler,3144 Oakland Avenue South,,Minneapolis,MN,55407
"January 19, 2005",Betty Lou,,Reveling,1548 Oberlin Circle South,,Fridley,MN,55432
"June 14, 2005",Jose Alfredo,,Reyes,267 East Roeller Avenue,,West St. Paul,MN,55118
"June 14, 2005",Phillip,,Rhodes,Carleton College Music Department,300 North College Street,Northfield,MN,55057
"January 14, 2006",Craig,,Rice,Cartouche Entertainment Inc.,4041 3rd Avenue South,Minneapolis,MN,55409
"February 28, 2006",Elizabeth,,Rice,4041 3rd Avenue South,,Minneapolis,MN,55409
"February 28, 2006",Lorri,,Rice,4020 Park Avenue,,Minneapolis,MN,55407
"November 02, 2002",Malka,,Rice,8531 W 29th St,,Minneapolis,MN,55426
"February 28, 2006",Sheila,,Rice,4021 Clinton Avenue South,,Minneapolis,MN,55409
,David,,Rich,504 Selby,#4,St. Paul,MN,55102
,Sumner,,Richman,608 Terrace Court,,Roseville,MN,55113
"July 27, 2004",Bethany,,Ricks,2080 Giesmann,,Roseville,MN,55113
,Corrin,,Rider,1167 Jackson Street,,Shakopee,MN,55379
"January 19, 2005",Wendy,,Rider,1409 - 63rd Lane North,,Brooklyn Center,MN,55430
,Peter Kent,,Riedesel,17610 - 12th Avenue North,,Plymouth,MN,55447
,Gloria,,Riggi,15401 Highwood Drive,,Minnetonka,MN,55435
"August 31, 2001",Nancy,,Riley,7901 W. 31st St.,,St. Louis Park,MN,55426
"August 31, 2001",Ann,,Rinkenberger,14263 Oren Road N,,Scandia,MN,55073
,Ian,K.,Ritchie,552 Dayton Ave,,St. Paul,MN,55102-1710
,Gregorio,,Rivera,3455 Girard Avenue North,,Minneapolis,MN,55412
"September 20, 2004",Essie,,Roberts,2935 Minnehaha Curve,,Wayzata,MN,55391
"January 09, 2006",Sue,,Roberts,2853 44th Avenue S.,,Minneapolis,MN,55408
,M.,,Robertson,5320 45th Avenue South,,Minneapolis,MN,55417
"August 17, 2003",Scott,,Robertson,17355 Weaver Lk Dr. N.,,Maple Grove,MN,55311
"March 14, 2003",Sandy,,Robin,9477 Ranchview Ln N,,Maple Grove,MN,55369
"February 19, 2004",Paul,,Robinson,35 Wentworth Ct. E.,,Minneapolis,MN,55419
"June 14, 2005",Samantha,,Robson,4352 14th Avenue South,,Minneapolis,MN,55407
"August 31, 2001",Colleen,,Rod,1786 Lake Street,,Lauderdale,MN,55113
"October 24, 2001",Keith,,Rodli,219 North Main Street,Post Office Box 138,River Falls,WI,54022
"June 14, 2005",Ronald,,Rodman,Carleton College Music Department,300 North College Street,Northfield,MN,55057
,Carolyn,,Rodreick,3316 Columbus Ave. So.,,Minneapolis,MN,55407
,Brent,,Rogers,7780 - 50th Street North,,Lake Elmo,MN,55042
,Dr. Mary,,Rogers,4215 West 42nd Street,,Edina,MN,55416
"October 29, 2001",Karen,,Rogers,7378 Howard Lane,,Eden Prairie,MN,55346
"August 31, 2001",Judy,,Rogosheske,4000 US Bank Place,601 Second Avenue South,Minneapolis,MN,55402
,Jo,,Rohady,18369 Lakeview Pt. Drive NE,,Wyoming,MN,55092
"January 28, 2002",Karen,,Rohling,4517 Adair Ave. N.,,Crystal,MN,55422
"September 20, 2004",Cheri,,Rolnick,8924 29th Avenue No.,,New Hope,MN,55427
"January 11, 2004",John,,Romano,2049 Juliet Ave,,St. Paul,MN,55105
,Stuart,,Ronn,2426 East 24th Street,,Minneapolis,MN,55406
,Marie,,Rooney,6019 Newton Ave. S.,,Minneapolis,MN,55419
,Julie,,Rose,12605 50th Avenue N.,,Plymouth,MN,55442
,Mary Ellen,,Rose,3375 290th Avenue,,Dickens,IA,51333
"August 31, 2001",Barb,,Ross,4000 US Bank Place,601 Second Avenue South,Minneapolis,MN,55402
"August 01, 2006",Emily,,Ross,2437 Hymes Avenue North,,Oakdale,MN,55128
"August 30, 2002",Kasey,,Ross,3554 17th Avenue,#6,Minneapolis,MN,55407
"August 31, 2001",Kathryn,,Ross,3705 44th Avenue S,,Minneapolis,MN,55406
,Linda Mack,,Ross,2754 Quentin South,,Minneapolis,MN,55416
"March 30, 2001",Dorothy,,Rossing,5041 Newton Avenue S,,Minneapolis,MN,55419
"August 17, 2003",Theordore,,Rossing,2186 Gardenette Dr. N.,,White Bear Lake,MN,55110
"January 09, 2006",Jennifer,,Roth,3985 Balsam Lane,,Plymouth,MN,55441
,Erny,,Rouse,3003 Snelling Avenue North,,St. Paul,MN,55113
"November 02, 2003",The,,Rowans,3434 Grimes Ave. N.,,Robbinsdale,MN,55422
"November 04, 2004",Shirley,,Roy,7201 June Avenue North,,Brooklyn Center,MN,55429
"January 19, 2005",Gale,,Rucker,428 North 1st Street #301,,Minneapolis,MN,55401
,Lisa,C.,Rudolph,2219 27th Ave S.,,Minneapolis,MN,55406
,Tom,,Ruesch,2565 Beacon Street,,Roseville,MN,55113
"February 05, 2002",Rev. Alvin,,Rueter,1603 Garden Ave,,St. Paul,MN,55113
,Pam,,Rush,16907 Hanover Lane,,Eden Prairie,MN,55347
"June 14, 2005",Melinda,,Russell,Carleton College Music Department,300 North College Street,Northfield,MN,55057
"January 19, 2005",Helen Steidl,,Rusten,15409 Wayzata Blvd. #203,,Wayzata,MN,55391
"August 30, 2002",Laura,,Rutmanis,4639 Pleasant Ave S,,Minneapolis,MN,55409
,David,,Ryan,2910 Linden Drive,,New Brighton,MN,55112-8406
,Mary,,Ryan,4024 Aldrich Avenue South,,Minneapolis,MN,55409
,Ron,,Rydell,1301 Bliss Lane,,Bloomington,MN,55420
,Samuel,,Salas,"Headmaster, Breck School",123 Ottawa Ave. No.,Golden Valley,MN,55422
"August 13, 2004",Jorge,,Salvatierra,13107 Orchard Road,,Minnetonka,MN,55305
"September 09, 2008",Gloria,,Samelian,2217 Stroden Circle ,,Golden Valley,MN,55427
"September 09, 2008",Vic,,Samelian,1010 W. 54th Street,,Minneapolis,MN,55419
"February 19, 2004",Pat,,Sammons,409 6th Street W.,,Hastings,MN,55033
"August 17, 2003",Ann,,Samways,3942 Abbot Avenue N.,,Robbinsdale,MN,55422
,Laurie,,Sanchez,10025 Xerxes Avenue S,,Bloomington,MN,55431
,Janet,,Sandquist,3127 Brooks Lane,,Wayzata,MN,55391
"October 24, 2001",Father,,Santoro,Holy Rosary Church,2424 18th Avenue South,Minneapolis,MN,55404
,Dick,,Sarafolean,870 Ashland Avenue,,St. Paul,MN,55104-7013
,Pauline,,Sateren,5217 Windsor Avenue,,Edina,MN,55436
"September 20, 2004",Stan,,Saterstrom,6124 11th Ave. South,,Minneapolis,MN,55417
"September 17, 2004",Mrs. Don,,Sault,3209 Marice Court,,Eagan,MN,55121
,Wade,,Savage,567 Rice Creek Terrace N.E.,,Fridley,MN,55432
,Maria,,Savini,5940 145th Ln NW,,Ramsey,MN,55303
"September 18, 2002",Kori,,Sawyer,2404 Sumac Way,,Woodbury,MN,55125
"April 03, 2001",Kathleen,,Schaaf,2205 Mary Hills Drive,,Golden Valley,MN,55422
,D.A.,,Schaefer,1648 Scheffer,,St. Paul,MN,55116
"January 19, 2005",Martha,,Schaefer,3949 Beard Ave. South,,Minneapolis,MN,55410
"February 19, 2004",Anne,,Schauer,6505 Morgan Avenue,,Richfield,MN,55423
,Bobette,,Schauer,"R.R. #1, Box 17",,Arlington,MN,55307
,Katie,J.,Scheel,8385 Corcoran Circle,,Inver Grove Heights,MN,55076
"January 19, 2005",Geneva,,Schenk,2200 Cedar Lake Pkwy,,Minneapolis,MN,55416
"January 19, 2005",Kathryn,,Schenk,110 Hampshire Ave. North,,Golden Valley,MN,55427
"March 15, 2004",Gloria Hauge,,Schieck,17782 Keystone Avenue,,Lakeville,MN,55044
"January 28, 2002",Kathy,,Schille,1050 13th Street,,Newport,MN,55055
"February 23, 2004",John,,Schlagel,1420 W. 104th Street,,Bloomington,MN,55431
,Peter,,Schleif,2731 2nd Avenue South,,Minneapolis,MN,55408
"March 07, 2009",Debra,,Schletzer,10415 41st Avenue North,,Plymouth,MN,55441
"November 02, 2003",Gary,,Schmidt,"220 Carlson Pkwy, #104",,Minnetonka,MN,55305
,Jeffrey,,Schmidt,1249 Goodrich Avenue,,St. Paul,MN,55105-2706
"August 17, 2003",Michael,,Schmidt,1300 W. County Rd D,,New Brighton,MN,55122
"November 02, 2002",Teresa,,Schmidt,2315 Quinwood Ln. N,,Plymouth,MN,55441
"August 17, 2003",Doran,,Schoeppach,250 270th Avene NE,,Belgrade,MN,56312
"August 30, 2002",Jack,,Scholes,15674 Woodgate Rd. South,,Minnetonka,MN,55345
,William,R.,Schoonover,P.O. Box 5312 GAC,,St. Peter,MN,56082
,Vicki,,Schuft,Gaylord Schools - Sibley East,P.O. Box 356,Gaylord,MN,55334-0356
"January 19, 2005",Bette,,Schuldt,2130 Mary Hills Drive,,Minneapolis,MN,55422
,John,,Schultz,10215 Summer Place,,Eden Prairie,MN,55347
,Jamie,,Schumaker,1034 Dayton Ave.,,St. Paul,MN,55104
,Andrea,,Schussler,2425 Black Lake Road,,Spring Park,MN,55384
"February 23, 2004",Sandie,,Scott,12164 Cartway Curve,,Eden Prairie,MN,55347
"February 28, 2006",Diane,,Sears,864 Sudberry Lane,,Eagan,MN,55123
,Don,,Seifert,22305 Helena Boulevard,,Jordan,MN,55352
"June 14, 2005",Lucy,,Selander,3921 27th Avenue South,,Minneapolis,MN,55406
,Solvieg,R.,Sem,3217 - 45th Avenue South,,Minneapolis,MN,55406
"August 31, 2001",Dave,,Senger,4800 Wells Fargo Center,90 South Seventh Street,Minneapolis,MN,55402
"November 02, 2003",Brenna,,Serdar,6030 Chestnut Ct.,,Excelsior,MN,55331
"January 09, 2006",Isaty,,Sesay,8451 Regent Avenue,,Brooklyn Park,MN,55443
"May 06, 2006",David,,Severtson,3208 Toenview Avenue NE,,St. Anthony,MN,55418
"August 17, 2003",Mike,,Sevig,10312 Colorado Rd,,Bloomington,MN,55438
"September 20, 2004",Violet,,Sevold,3811 Baker Road,,Minnetonka,MN,55305
"January 09, 2006",David,,Shack,"Ordway Center, 345 Washington St.",,St. Paul,MN,
"August 02, 2004",Mary,,Shah,1242 Curve Crest Blvd.,,Stillwater,MN,55082
"January 19, 2005",Zella,,Shannon,8441 Irwin Road #110,,Minneapolis,MN,55437
"August 17, 2003",Laura,,Shaw,5580 Shore Road,,Excelsior,MN,55331
,Marianne,,Shay,7793 9th Street N,,Oakdale,MN,55128
"August 31, 2001",Mary,,Shearen,4000 US Bank Place,601 Second Avenue South,Minneapolis,MN,55402
"March 30, 2001",Laree,,Shebeck,3444 Creekview Terrace,,Minnetonka,MN,55305
"August 31, 2001",Gloria,,Shedlov,1264 Jamison Avenue NE,,St. Michael,MN,55376
,Mary,M.,Sheehy,240 Ranchview Lane North,,Plymouth,MN,55447
,Terry,,Sheetz,1879 - 14th Street N.W.,,New Brighton,MN,55112-1846
"September 09, 2008",Barb,,Shefland,4448 Zenith South,,Minneapolis,MN,55410
,Barbara,L.,Shefland-Portesan,4448 Zenith Avenue S,,Minneapolis,MN,55410-1458
,Karen,,Sheldon,1026 - 23rd Avenue N.E.,,Minneapolis,MN,55418
"August 03, 2004",Elizabeth,,Shelver,5800 St. Croix Avenue N. Apt C411,,Golden Valley,MN,55422
"March 20, 2007",Bonnie,,Shepardson,1273 Brighton Square,,New Brighton,MN,55112
,Pneena,,Sheps,1251 NE 19th Ave.,,Rochester,MN,55906
,Colette,,Sherman,6724 Point Drive,,Edina,MN,55435
"August 17, 2003",Hilary,,Sherman,1100 E Elm Avenue,,Waseca,MN,56093
,Donald,,Shier,2536 - 112nd Avenue N.W.,,Coon Rapids,MN,55433
"March 23, 2005",Amy,,Shih,27 N. Deep Lake Road,,North Oaks,MN,55127
"August 31, 2001",Rick,,Shiomi,5436 Clinton Avenue South,,Minneapolis,MN,55419
"August 31, 2001",Tom,,Shroyer,4800 Wells Fargo Center,90 South Seventh Street,Minneapolis,MN,55402
"August 30, 2002",Sandra,,Shumate,10970 Kiawah Dr,,Eden Prairie,MN,55344
,Lois,,Siegel,3450 Boone Ave. So.,,Minneapolis,MN,55426
"August 12, 2003",Scott,,Sigel,PO Box 75,,Velva,ND,58790
"August 08, 2006",Jan,,Sigmund,1666 Coffman #325,,St. Paul,MN,55108
"February 05, 2002",Linda,,Silrum,3432 Holmes Ave. S.,,Minneapolis,MN,55408
"August 31, 2001",Rosy,,Simas,PO Box 18234,,Minneapolis,MN,55418
"August 17, 2003",Kevin,,Sime,4120 23rd Avenue S.,,Minneapolis,MN,55407
"March 14, 2003",Monica,,Simonson,8242 Thomas Ave S.,,Bloomington,MN,55431
"January 28, 2002",Betty,,Sims,3021 Timberwood Trail,,Eagan,MN,55121
,Carolyn,,Sinclair,110 Mitchells Court,,Mahtomedi,MN,55115
"August 17, 2003",Karla,,Singer,3524 Benjamin Street NE,,Minneapolis,MN,55418
"January 19, 2005",Linda,,Singer,1725 Knox Ave. South,,Minneapolis,MN,55403
,Linda,,Singh,37 North Oaks Blvd,,North Oaks,MN,55127
"October 24, 2001",Ginger,,Sisco,8308 40th Avenue N.,,Minneapolis,MN,55427
,Mark,,Skibness,3204 Idaho Avenue South,,St. Louis Park,MN,55426
,JoAnn,,Skinner,18515 - 26 th Avenue North,,Plymouth,MN,55447
"January 11, 2004",Kent,,Skoglund,1021 W. 14th St.,,Willmar,MN,56201
"January 11, 2004",Margaret,,Skoglund,"14018 Pennock Ave, #110",,Apple Valley,MN,55124
"January 11, 2004",Vern,,Skoglund,250 Williams Ave,,New Richmond,WI,54017
"June 14, 2005",Nancy,,Slagg,6901 West 84th Street  #241,,Bloomington,MN,55438
"November 02, 2003",Ali,,Smith,1527 Dublin Court,,Shakopee,MN,55379
,Anne,,Smith,7540 Ridgeway Road,,Golden Valley,MN,55426
"January 28, 2002",Carol Anne,,Smith,11093 Branching Horn,,Eden Prairie,MN,55347
"January 19, 2005",Joanne,,Smith,5601 Dewey Hill Road #207,,Edina,MN,55439
,Linda,,Smith,6212 Fox Meadow Lane,,Edina,MN,55436
"February 23, 2004",Rex,,Smith,1700 Stevens Ave. Apt.#106,,Minneapolis,MN,55403
"January 28, 2002",Victoria,,Smith,368 Arbor St.,,St. Paul,MN,55102
,David,,Smolley,10527 Grant Street,,Eden Prairie,MN,55347
,John,M.,Smolley,8654 Wedgewood Lane No.,,Maple Grove,MN,55369
"January 19, 2005",Shirley,,Snackenberg,1200 Nicollet Mall #609,,Minneapolis,MN,55403
"October 24, 2001",Melissa,,Snelson,400 One Financial Plaza,120 South 6th St.,Minneapolis,MN,55402
"August 17, 2003",Tracy,,Snipstead,98 Northern Lights Blvd.,,Kalispell,MT,59901
,Elizabeth,,Snyder,5645 Green Circle Drive,#306,Minnetonka,MN,55343-9662
,Jonathan,,Solberg,3660 34th Avenue South,,Minneapolis,MN,55406
,Keri,,Sollitt,Salk Junior High School,11970 Highlland Road,Elk River,MN,55330-1299
"January 28, 2002",Jerome,,Solvie,400 Grove Ave. N.,,Minneapolis,MN,55403
"January 19, 2005",Eleanore,,Sommer,8100 Highwood Dr #26A,,Minneapolis,MN,55438
"January 19, 2005",Dorothy,,Sorbo,5703 Donegal Drive,,St. Paul,MN,55126
"January 19, 2005",Anita,,Sorensen,13439 - 185th Lane NW #204,,Elk River,MN,55330
,Margaret,,Sorensen,2824 Jersey Ave. So.,,St. Louis Park,MN,55426
"March 14, 2003",Mary,,Sorenson,2225 Regent Ave N,,Golden Valley,MN,55422
,Mark,,Sotebeer,8565 Chanhassen Hills Drive South,,Chanhassen,MN,55317-8108
"August 31, 2001",Greg,,Soule,4000 US Bank Place,601 Second Avenue South,Minneapolis,MN,55402
"August 17, 2003",Tina,,Soumare,3336 34th Avenue S.,,Minneapolis,MN,55406
"January 19, 2005",Arne,,Sovik,1201 Yale Place #707,,Minneapolis,MN,55403
,Carolyn,,Speed,5643 Green Circle Drive,#213,Minnetonka,MN,55343
"August 31, 2001",Ann,,Spencer,9332 Xylon Circle,,Bloomington,MN,55438
"March 30, 2001",Jan,,Spencer,2863 N. Oxford St,,St. Paul,MN,55113
,S.M.,,Speranza,1734 Rome Avenue,,St. Paul,MN,55116
"November 02, 2003",Janet,,Spielman,15847 Fenway Avenue No.,,Hugo,MN,55038
,Tanya,,Spillum,5908 Oliver Avenue South,,Minneapolis,MN,55419
"August 31, 2001",Kathleen,,Spinner,17472 Frondell Ct,,Eden Prairie,MN,55347
,Elizabeth,A.,Spolyar,3038 - 40th Avenue South,,Minneapolis,MN,55406-2223
"January 19, 2005",Clayton,,Spranger,7500 York Ave. South #119,,Edina,MN,55435
,Jeff,,Springborg,4174 S. County Road 45,,Owatonna,MN,55060
"March 30, 2001",Jack,,Staddon,1400 S. 2nd St. #B109,,Minneapolis,MN,55454
,Mickey,,Stanczak,11529 River Hill Drive,,Burnsville,MN,55337
"June 14, 2005",Ramona,C.,Starks,4656 Portland Avenue South,,Minneapolis,MN,55407
"January 19, 2005",Kristine,,Stedje,3016 Minnehaha Pkwy East,,Minneapolis,MN,55406
,Maynard,,Steensgard,"1430 100th Avenue NW, #111",,Coon Rapids,MN,55433
"January 19, 2005",Nancy,,Stefan,5545 Chicago Ave. South #105,,Minneapolis,MN,55417
"August 17, 2003",Leah,,Steffen,28334 Redwing Avenue,,Shafer,MN,55074
,Lagretta,,Stegner,6200 Wyman Avenue,,Edina,MN,55436
"July 27, 2004",Julie,,Steller,1604 Elliot Avenue South,,Minneapolis,MN,55404
"July 27, 2004",Jean,,Stenehjem,7656 Woodview Court,,Edina,MN,55439
"November 05, 2001",Phyllis,,Stenerson,501 Main St. SE #525,,Minneapolis,MN,55414
,Christine,,Stenzel,10459 Huntingon Drive,,Eden Prairie,MN,55347
"September 20, 2004",Russell,,Stephens,5053 Washburn Ave. So.,,Minneapolis,MN,55410
"August 17, 2003",Wendy,,Stephens,817 S. Court St.,,Fergus Falls,MN,56537
"February 19, 2004",Christy,,Stern,8953 Willowby Crossing,,Maple Grove,MN,55311
,Eldon,,Steuernagle,750 E. School Street,,Owatonna,MN,55060
,Richard,T.,Stevens,200 North Mississippi River Blvd.,,St. Paul,MN,55104
,William,,Stevens,8509 - 29th Avenue North,,New Hope,MN,55427-2621
"November 02, 2003",Leah,,Stevenson,4329 Coolidge Ave,,St. Louis Park,MN,55424
"November 02, 2003",Staci,,Stierlen,4628 Portland Avenue,,Minneapolis,MN,55407
"August 08, 2006",Elaine,,Stoerzinger,9342 South Robert Trail,,Inner Grove Heights,MN,55077
"February 08, 2007",Rose,,Stoerzinger,1252 E. 90th Street,,Inver Grove Heights,MN,55077
"July 27, 2004",Marilyn,,Storm,5724 Cambridge St.,,Minneapolis,MN,55416
"January 09, 2006",Star,,Strane,2355 Bourne Avenue,,St. Paul,MN,55108
"November 02, 2003",Bert,,Strassburg,3011 Irving Ave. N.,,Minneapolis,MN,55411
"May 17, 2007",Anne,,Strasser,3673 Ashbury Road,,Eagan,MN,55122
,Polly,,Strege,1811 - 82nd Avenue North,,Brooklyn Park,MN,55444
"August 27, 2005",Jennifer,,Streit,1873 Goodrich Avenue  Apt. C,,St. Paul,MN,55105
,Nanette,,Stroebel,4037 Bryant Avenue South,,Minneapolis,MN,55409-1421
,Luanna,,Stroh,7804 Norris Avenue N.W.,,Annandale,MN,55302
"August 31, 2001",Linda,,Strohkirch,8702 Ironwood Trail N,,Lake Elmo,MN,55042
"June 14, 2005",Jean,,Strommer,"Multicutural Affairs, Room 185 KlaCt",320 16th Avenue SE,Minneapolis,MN,55455
,James,,Stuebner,3530 Northome Road,,Wayzata,MN,55391
,Curtis,,Stull,5501 Holiday Road,,Minnetonka,MN,55345
"August 30, 2002",Clarice,,Sulabach,6317 Cavell Ct,,Brooklyn Park,MN,55428
,Julie,M.,Sullivan,5133 Upron Avenue S,,Minneapolis,MN,55410
"August 31, 2001",Tim,,Sullivan,4000 US Bank Place,601 Second Avenue South,Minneapolis,MN,55402
,Elizabeth,,Super,461 Woodlawn Avenue ,,St. Paul,MN,55103
,Anne,,Susag,St. Olaf Catholic Church,215 S. 8th Street,Minneapolis,MN,55402
"June 14, 2005",Marie,,Svang,4140 11th Avenue South,,Minneapolis,MN,55407
"August 17, 2003",Eric,,Swan,657 Overlook Dr.,,St. Paul,MN,55113
,Joy,,Swan,16675 Lakeview Court,,Lakeview,MN,55044
,Nancy,,Swan,1856 Parker Road,,St. Louis Park,MN,55426
"January 19, 2005",Bernice,,Swanberg,501 Sumter Ave. South,,Golden Valley,MN,55426
"March 22, 2005",Lynn,,Swanson,8697 Bayard Court,,Eden Prairie,MN,55347
,Mark,,Swanson,2615 Park Avenue South,,Minneapolis,MN,55404
"September 29, 2006",Kristine,,Swenson,1771 Blair Ave,,St Paul,MN,55410
"January 20, 2005",Larry,,Swenson,"5082 15th Street NE, #1",,Sauk Rapids,MN,56379
,Mark,,Swenson,654 Koehnen Drive,,Chaska,MN,55318
,Jennifer,,Sylvester,684 Nebraska Avenue E,,St. Paul,MN,55106
"November 07, 2005",Waltor,,Tambor,88 N. 17th Street,Coordinator of Compemporary and World Music,Minneapolis,MN,55403
,Sharon,,Tapper,2356 Sumter Ave. So.,,St. Louis Park,MN,55426
,Maurine,,Tebow,1795 East Bluestone Drive,,Eagan,MN,55122
"September 20, 2004",Kay,,Tellekson,314 Emerson Avenue East,,West St. Paul,MN,55118
,Virginia,,Templeton,4327 Abbott Avenue S,,Minneapolis,MN,55410
"August 08, 2006",Tracy,,Terbell,5216 16th Avenue South,,Minneapolis,MN,55417
"August 30, 2002",Marilyn,,Terwilliger,14311 Bedford Dr,,Eden Prairie,MN,55346
"September 09, 2008",Mary,,Teurman,4945 16th Avenue South,,Minneapolis,MN,55417
"April 26, 2006",Gloria,,Tew,4431 Eastwood Road,,Minnetonka,MN,55345
"March 07, 2009",Arielle,,Thibeault,1007 Cromwell Avenue,,St. Paul,MN,56114
"February 23, 2004",Dawn,,Thiel,5257 Xerxes Ave. S.,,Minneapolis,MN,55410
"November 04, 2004",Michele,,Thieman,1247 Raymond Avenue,,St. Paul,MN,55108
"November 02, 2003",Gordon,,Thomas,Mount Calvary Lutheran Church,301 County Road 19,Excelsior,MN,55331
,Terri,,Thomas,4965 Credit River Drive,,Savage,MN,55378-4610
"August 17, 2003",Diane,,Thompson,5336 Florida Avenue N.,,Minneapolis,MN,55428
"March 22, 2005",Fran,,Thompson,10720 Rockford Rd. Apt. 103,,Plymouth,MN,55442
"January 28, 2002",Jean,,Thompson,14405 43rd Ave. N.,,Plymouth,MN,55446
"January 09, 2006",Joan,,Thompson,2347 Gresham Avenue N.,,Oakdale,MN,55128
"March 17, 2004",Nancy,,Thompson,4520 41th Avenue South,,Minneapolis,MN,55406
"November 04, 2004",Ruth,,Thompson,5627 Green Circle Drive #107,,Minnetonka,MN,55343
,Tad,,Thompson,14376 Exley Lane,,Apple Valley,MN,55124
,Ethel,,Thoresen,8307 Oxborough Ave. So.,,Bloomington,MN,55437
,Ruth,,Thorsell,2347 Heath Ave. No.,,Oakdale,MN,55128
"July 27, 2004",Joan,,Threet,2727 Skyline Drive,,Bloomington,MN,55425
"August 17, 2003",Melody,,Tiederman,1050 19th Avenue NE,,Rochester,MN,55906
"April 26, 2006",Karl,,Tise,500 Woodley Street W. #202,,Northfield,MN,55057
"January 11, 2004",Chris,,Tjornehoj,104 13th St. S,,Hudson,WI,54016
,Susan,,Tjornehoj,1383 Midway Pkwy,,St. Paul,MN,55108-2418
"January 19, 2005",Marcella,,Toft,1087 Cedarview Drive,,Minneapolis,MN,55405
"August 30, 2002",Sandra,,Tolkkinen,180 Jackson Ave N,,Cokato,MN,55321
,Valerie,,Toomer,13600 Berkshire Lane,,Eden Prairie,MN,55347
"March 30, 2001",D'Ann Marie,,Topoluk,3450 Harriet Avenue South,,Minneapolis,MN,55408-4233
"February 28, 2006",David,,Trembley,210 King Creek Road,,Minneapolis,MN,55416
,Ken,,Trombley,6619 Limerick Drive,,Edina,MN,55439
,Eric,,Trosdahl,616 W. Elm Street,,Stillwater,MN,55082
"September 15, 2004",Eleanore,,Troxel,4137 Shirlee Lane S.,,Shoreview,MN,55126
,Heidi,,Trulen,7556 Scott Avenue North,,Brooklyn Park,MN,55443
,Ann,,Tuscano,5220 W. 132nd St.,,Apple Valley,MN,55124
"August 17, 2003",Julie,,Tyler,2246 Dellwood Avenue ,,St. Paul,MN,55113
"November 07, 2005",Oksana,,Tymechko,6298 N. Meadowlark Lane,,Maple Grove,MN,55369
,Mark,,Uecker,1114 Tiffany Ct.,,Eagan,MN,55123-1873
"September 21, 2004",Gary,,Ujifusa,14105 74th Place North,,Maple Grove,MN,55311
,Bruce,,Underhill,1856 Yorkshire Avenue,,St. Paul,MN,55116-2404
,Kathleen,,Urdahl,400 SE 8th Street,,Pine Island,MN,55963
"June 14, 2005",Hector,,Valdiva,Carleton College Music Department,300 North College Street,Northfield,MN,55057
"March 30, 2001",Leona,,Valenty,3500 Yates Avenue N,,Crystal,MN,55422
,Sharri,,Van Alstine,421-4th Ave. NE,,Cambridge,MN,55008-1218
"February 23, 2004",Johan,,Van Parys, 88 No. 17th St.,,Minneapolis,MN,55403
"September 20, 2004",Janet,,Vanderschmidt,3540 18th Avenue So.,,Minneapolis,MN,55407
"February 28, 2006",Janika,,Vandervelde,1631 Highland Parkway,,St. Paul,MN,55116
"July 28, 2004",Bob,,Vangerud,1680 373rd Avenue NE,,Stanchfield,MN,55080
"January 19, 2005",Myrtle,,Vangsnes,3910 Aldrich Ave. South,,Minneapolis,MN,55409
"September 20, 2001",Kristin,,Vann,4035 Standish Avenue,,Minneapolis,MN,55407
"January 09, 2006",M.,,Vannavong,2627 Lyndale Avenue N.,,Minneapolis,MN,55411
"August 31, 2001",Reno,,VanPutten,4000 US Bank Place,601 Second Avenue South,Minneapolis,MN,55402
,Karen,,Varian,1817 121st Ave. N.E.,,Blaine,MN,55449
"January 19, 2005",Anna,,Varloe,7500 York Ave. South #839,,Edina,MN,55435
"January 11, 2004",Loretta,,Varpness,5309 35th Ave S.,,Minneapolis,MN,55417
"January 09, 2006",Mary,,Vavner,3119 Zarthan S.,,St. Louis Park,MN,55416
"November 13, 2007",Olivia,,Vavreck,2905 44th Avenue South,,Minneapolis,MN,55406
"November 04, 2004",Ann,,Vermeer,590 Alvarado Lane North,,Plymouth,MN,55447
,Kathryn,J.,Vilendrer,2800N Hamline Avenue,Apt 310,Roseville,MN,55113
"January 28, 2002",Virginia,,Villa,1673 Payne Ave.,,St. Paul,MN,55101
,Lottie,,Virnig,10900 Flora St. NW,,Coon Rapids,MN,55433
,Frank,,Vivaldelli,1335 Bayard Avenue,,St. Paul,MN,55116
,Barb,,Vivian,8706 Sanduo Road,,Bloomington,MN,55438
,Sylvester,,Vivic,45 East 7th Street,,St. Paul,MN,55101
"January 19, 2005",Bernice,,Volkert,6920 Lake Shore Drive,,Richfield,MN,55423
"June 14, 2005",Ann,,Wachtler,104 20th Street South,,Montevideo,MN,56265
,Gayle,,Wade,3835 Orchid Lane,,Plymouth,MN,55446
,Karla,,Wagner,4912 31st Avenue South,,Minneapolis,MN,55417
,Ms. Catherine,,Wagner,"4300 W. River Pkwy, #307",,Minneapolis,MN,55406-4679
"January 19, 2005",Ron,,Wahlberg,1201 Yale Place #1407,,Minneapolis,MN,55403
,Anne,,Walbrun,17950 Liv Lane,,Eden Prairie,MN,55346
"August 17, 2003",Justin,,Walker,61 N West Confederate Ave,,Gettysburg,PA,17325
,Rev. Carl,,Walker,Walker West Academy,777 Selby Avenue,St. Paul,MN,55104
"November 02, 2003",Sarah,,Wall,10400 West Riverview Drive,,Eden Prairie,MN,55347
"March 20, 2007",Donald J. Janet,A.,Wallerstedt,552 Continental Drive,,New Brighton,MN,55112
"September 20, 2004",Ted,,Wallerstedt,2611 Sandterra Circle,,White Bear Lake,MN,55110
"May 17, 2007",Debra,,Walsh,1532 Blackhawk Ridge Ct.,,Eagan,MN,55122
,Arla,,Walz,"7500 Edinborough Way, #3112",,Edina,MN,55435
,Pastor David,,Wangaard,Christ Lutheran Church,105 W. University Ave.,St. Paul,MN,55103
"August 30, 2002",Doug,,Ward,7831 Danner,,Inver Grove Heights,MN,55076
"June 14, 2005",Grace,,Ware,3975 Arrowood Lane North,,Plymouth,MN,55441
"June 05, 2008",Katie,,Wareham,1328 NE Lake St. #638,,Hopkins,MN,55343
,Lana,,Wareham,282 Bernard Street,,W. St. Paul,MN,55118
,Mary Ann,,Wark,1588 Northrop Street,,St. Paul,MN,55108
"March 23, 2005",Mary,,Warpeha,2007 Mississippi St.,,New Brighton,MN,55112
"February 08, 2007",John,,Watson,620 Painters Creek Drive,,Minnetrista,MN,55364
,Phyllis,E.,Wattnem,Rt. 1 Box 257,,Sandstone,MN,55072
,John,,Weaver,4647 Grand Avenue,,Minneapolis,MN,55409-2411
"September 20, 2004",Shevan,,Weerasinghe,14223 Valley View Rd. #303,,Eden Prairie,MN,55344
"November 05, 2001",Emily,,Weglian,3651 Emerson Avenue N.,,Minneapolis,MN,55412
,Marty,,Weisbeck,8712 Pheasant Run Road,,Woodbury,MN,55125
"October 24, 2001",Jane,,Welch,33S 6th Street Ste 4900,,Minneapolis,MN,55402
,Doris,,Welke,2200 Lukewood,,Chanhassen,MN,55317
,Katharine,,Weller,5220 Morningside Road,,Minneapolis,MN,55416
,Frank,,Wells,3140 S. Ivy St.,,Cambridge,MN,55008
,Jennifer,,Werth,15015 - 80th Place North,,Maple Grove,MN,55311
"September 20, 2004",Tracy,,Wesley,11015 Swallow St. NW,,Coon Rapids,MN,55433
"January 09, 2006",Anthony,,Wessel,3808 Xylon Avenue N.,,New Hope,MN,55427
"January 09, 2006",Patty,,West,140 W 43rd Street,,Minneapolis,MN,55409
"September 20, 2001",Carl,,Westby,1434 Arden View Dr.,,Arden Hills,MN,55112
"March 14, 2007",Eunice,,Westby,649 Old Hwy 8 NE #333,,New Brighton,MN,55112
"January 19, 2005",Ragnhild,,Westby,541 Portland Avenue,,St. Paul,MN,55102
,Paul,M.,Wester,3664 Pond View Point,,Eagan,MN,55122
"August 17, 2003",Rachel,,Westhed,RR1 Box 118F,,Fertile,MN,56540
"August 17, 2003",Rebecca,,Westholm,E8391 1330th Avenue,,New Auburn,WI,54757
,Babette,,Wheeler,445 Lakota Lane,,Chaska,Mn,55318
"January 28, 2002",Patricia,,Whelan,"365 N. Luella St., #302",,St. Paul,MN,55119
"June 14, 2005",Tabitha,,Whissemore,"1833 Randolph Avenue, Apt # 2",,St. Paul,MN,55105
"August 04, 2004",Carol,,Whitcomb,2360 Montana Avenue,,Maplewood,MN,55119
,Andrea,,White,1306 W. 15th Street,,Hastings,MN,55033
,Jan,,White,260 E. Roeller Avenue,,W. St. Paul,MN,55118
,Marilyn,,White,6700-46th Place No.,,Minneapolis,MN,55428
"January 07, 2005",Shirley,,White,6195 Northwest Blvd. #226,,Plymouth,MN,55442
,William,,White,4603 Folwell Drive,,Minneapolis,MN,55406
"August 17, 2003",Willette,,Whitted,2230 149th Avenue NE,,Ham Lake,MN,55304
"August 31, 2007",Cynthia,,Wicklund,800 Broadway Street,,Marine-on-St. Croix,MN,55047
"January 19, 2005",Joyce,,Wicklund,3701 Bryant Ave. S. #821,,Minneapolis,MN,55409
"January 09, 2006",Marie,,Wiegert,4217 32md Avenue S.,,Minneapolis,MN,55406
"November 02, 2003",Pam,,Wiehoff-Kaufman,5129 Meadow Ridge,,Edina,MN,55439
,Heidi,,Wiesner,3422 Harriet Avenue South,,Minneapolis,MN,55408
"January 19, 2005",Sharon,,Wikstrom,4633 Louisiana Ave. North,,Crystal,MN,55428
"March 30, 2001",Michael,,Wilbur,4117 Poplar Bridge Rd,,Bloomington,MN,55437
"August 31, 2007",Mary,,Wilde,3532 Quail Avenue North,,Crystal,MN,55422
"October 24, 2001",Criag,,Wildfang,2800 LaSalle Plaza,800 LaSalle Avenue,Minneapolis,MN,55402
,Victoria,,Wilgocki,3300 Bloomington Ave,,Minneapolis,MN,55407
"January 28, 2002",Ruth,,Wilkman,"1115 Rankin, #12",,St. Paul,MN,55116
"September 29, 2006",Dorothy,,Williams,1833 Rome Ave,,St Paul,MN,55116
"November 02, 2003",H. Emmell,,Williams,110 First Avenue #1903,,Minneapolis,MN,55413
"January 19, 2005",Sharon,,Williams,2805 Pahl Avenue NE,,St. Anthony,MN,55418
"August 17, 2003",Terri,,Williams,6867 Kingston Drive,,Eden Prairie,MN,55346
"January 19, 2005",Clorasteen,,Wilson,4053 Fifth Avenue South,,Minneapolis,MN,55409
"June 14, 2005",Peggy,,Wilson,5475 Gideons Lane,,Shorewoos,MN,55331
"January 09, 2006",Tim,,Wind,328 5th Avenue N.,,Hopkins,MN,55343
"November 04, 2004",Mrs. Waynette,,Wing,12800 Marion Lane W. #421W,,Minnetonka,MN,55305
"January 19, 2005",Janet,,Winsand,2641 Xenwood Ave. South,,St. Louis Park,MN,55416
,Kathy,,Winslow,10660 47th Avenue,,Plymouth,MN,55442
,Eldri,,Wittkamper,456 Fremont Street,,Anoka,MN,55303-2138
"August 02, 2004",Mariel,,Wolter,12705 Welcome Lane,,Burnsville,MN ,55337
"August 12, 2003",Bernadette,,Wood,23775 Essex Ave,,Farmington,MN,55024
"March 14, 2007",Quentin,K,Wood,890 Monterey Drive,,Shoreview,MN,55126
,Sheila,A.,Woodbeck,6429 Barrie Road,,Edina,MN,55435
"January 09, 2006",Tony,,Woodroffe,4254 Regent Avenue N.,,Robbinsdale,MN,55422
"January 19, 2005",Florence,,Worner,1850 Juneau Lane North,,Plymouth,MN,55447
"January 19, 2005",David,,Wrightsman,1425 Amundson Drive,,Stillwater,MN,55082
"January 19, 2005",Edith,,Xavier,1350 Nicollet Mall #605,,Minneapolis,MN,55403
"September 20, 2007",Richard,,Yates,8470 Deer Pond Trail,,Lake Elmo,MN,55042
"January 19, 2005",Robert,,Ylvisaker,"2523 Portland Ave. S.,#1806",,Minneapolis,MN,55404
,Nancy,,Yost Olson,3368B Sunset Key Cir,,Punta Gorda,FL,33955-1970
,Elliott,,Youngberg,18875 Ruttedge Road,,Wayzata,MN,55391
"August 03, 2004",Maryam,E.,Yusefzadeh-Keer,4817 Fredmont Ave. So.,,Minneapolis,MN,55409
"June 14, 2005",Adam,,Yust,256 Goodrich Avenue,,St. Paul,MN,55102
"February 28, 2006",Marne,,Zafar,2202 22nd St. East,,Minneapolis,MN,55404
"September 20, 2001",Pam,,Zagaria,2118 Highland Parkway,,St. Paul,MN,55116
"August 25, 2005",Becky,,Zalon,226 Marshall Avenue #2,,St. Paul,MN,55102
"November 02, 2002",Carolyn,,Zarling,10710 Taylor St. NE,,Blaine,MN,55434
,Mary,,Zehring,821 Grand Avenue,,St. Paul,MN,55105
,Susan,,Zemlin,10920 Woody Lane,,Coon Rapids,MN,55448
,Darin,,Zielsdorf,1350 Imperial Lane,,New Brighton,MN,55112
,Anne,,Zielske,899 Linwood Avenue,,St. Paul,MN,55105
,Al,,Zinter,575 Crestview Lane,,Owatonna,MN,55060
"January 11, 2004",Nancy,,Zinter,50374 Sunset Lane,,Waterville,MN,56096
"August 31, 2001",Dave,,Zubke,4000 US Bank Place,601 Second Avenue South,Minneapolis,MN,55402
"May 01, 2007",Michael,,Zwickey,690 Lake Susan Hlls Dr.,,Chanhassen,MN,55317